; Hand-authored Bambu-style excerpt for parser coverage. Mnemonics are printer facts;
; the sequence is Tau's own and is not a vendor profile.
M73 P0 R12
M201 X20000 Y20000 Z500 E5000
M204 P20000 R5000 T20000
G90
G21
M83
M140 S55
M104 S220
M190 S55
M109 S220
G28
M970 Q1 A10 B10 C130 K0
M974 Q1 S1 P0
M17 X1.2 Y1.2 Z0.75
M960 S5 P1
M991 S0 P-1
M1002 judge_flag build_plate_detect_flag
M622 J1
M1002 gcode_claim_action : 0
M623
G92 E0
G1 Z0.4 F1200
G1 X20 Y5 F6000
G1 X236 Y5 E12.5 F1200
G3 Z0.8 I-0.851 J0.87 P1 F30000
M400 P100
M141 S35
M106 S0
M106 P2 S178
M620 S255
M621 S255
M400 U1
;LAYER_CHANGE
;Z:0.2
M73 L1
M991 S0 P0
G1 Z0.2 F1200
;TYPE:Outer wall
G1 X100 Y100 F3000
G1 X120 Y100 E0.6644
G3 X130 Y110 I0 J10 E0.5217
G1 X130 Y130 E0.6644
;WIPE_START
G1 X125 Y130 E-0.04
;WIPE_END
M400 S1
M201.2 K1.0
M981 S0 P20000
;LAYER_CHANGE
;Z:0.4
M73 L2
M991 S0 P1
G1 Z0.4 F1200
;TYPE:Sparse infill
G1 X110 Y110 F6000
G1 X120 Y120 E0.4698
T255
M622.1 S1
M1002 judge_flag timelapse_record_flag
M622 J1
M971 S11 C10 O0
M623
G4 S2
M0
M9999 X1
;END
M104 S0
M140 S0
M107
M18
