; LAYER 0 Z0.200
M106 S0
G1 Z0.200 F9000
; skirt
G1 E-0.8000 F1800
G1 Z0.600 F9000
G0 X102.210 Y102.210 F9000
G1 Z0.200 F9000
G1 E0.8000 F1800
G1 X87.790 Y102.210 E0.45213 F1200
G1 X87.790 Y87.790 E0.45213
G1 X102.210 Y87.790 E0.45213
G1 X102.210 Y102.210 E0.45213
G1 E-0.8000 F1800
G1 Z0.600 F9000
G0 X99.790 Y99.790 F9000
G1 Z0.200 F9000
G1 E0.8000 F1800
G1 X90.210 Y99.790 E0.30037 F1200
G1 X90.210 Y90.210 E0.30037
G1 X99.790 Y90.210 E0.30037
G1 X99.790 Y99.790 E0.30037
G0 X99.370 Y99.370 F9000
G1 X90.630 Y99.370 E0.27404 F1200
G1 X90.630 Y90.630 E0.27404
G1 X99.370 Y90.630 E0.27404
G1 X99.370 Y99.370 E0.27404
G1 E-0.8000 F1800
G1 Z0.600 F9000
G0 X98.566 Y90.840 F9000
G1 Z0.200 F9000
G1 E0.8000 F1800
G1 X99.160 Y91.434 E0.02634 F1200
G0 X97.972 Y90.840 F9000
G1 X99.160 Y92.028 E0.05268 F1200
G1 E-0.8000 F1800
G1 Z0.600 F9000
G0 X97.378 Y90.840 F9000
G1 Z0.200 F9000
G1 E0.8000 F1800
G1 X99.160 Y92.622 E0.07901 F1200
G1 E-0.8000 F1800
G1 Z0.600 F9000
G0 X96.784 Y90.840 F9000
G1 Z0.200 F9000
G1 E0.8000 F1800
G1 X99.160 Y93.216 E0.10535 F1200
G1 E-0.8000 F1800
G1 Z0.600 F9000
G0 X96.190 Y90.840 F9000
G1 Z0.200 F9000
G1 E0.8000 F1800
G1 X99.160 Y93.810 E0.13169 F1200
G1 E-0.8000 F1800
G1 Z0.600 F9000
G0 X95.596 Y90.840 F9000
G1 Z0.200 F9000
G1 E0.8000 F1800
G1 X99.160 Y94.404 E0.15803 F1200
G1 E-0.8000 F1800
G1 Z0.600 F9000
G0 X95.002 Y90.840 F9000
G1 Z0.200 F9000
G1 E0.8000 F1800
G1 X99.160 Y94.998 E0.18436 F1200
G1 E-0.8000 F1800
G1 Z0.600 F9000
G0 X94.408 Y90.840 F9000
G1 Z0.200 F9000
G1 E0.8000 F1800
G1 X99.160 Y95.592 E0.21070 F1200
G1 E-0.8000 F1800
G1 Z0.600 F9000
G0 X93.814 Y90.840 F9000
G1 Z0.200 F9000
G1 E0.8000 F1800
G1 X99.160 Y96.186 E0.23704 F1200
G1 E-0.8000 F1800
G1 Z0.600 F9000
G0 X93.220 Y90.840 F9000
G1 Z0.200 F9000
G1 E0.8000 F1800
G1 X99.160 Y96.780 E0.26338 F1200
G1 E-0.8000 F1800
G1 Z0.600 F9000
G0 X92.626 Y90.840 F9000
G1 Z0.200 F9000
G1 E0.8000 F1800
G1 X99.160 Y97.374 E0.28971 F1200
G1 E-0.8000 F1800
G1 Z0.600 F9000
G0 X92.032 Y90.840 F9000
G1 Z0.200 F9000
G1 E0.8000 F1800
G1 X99.160 Y97.968 E0.31605 F1200
G1 E-0.8000 F1800
G1 Z0.600 F9000
G0 X91.438 Y90.840 F9000
G1 Z0.200 F9000
G1 E0.8000 F1800
G1 X99.160 Y98.562 E0.34239 F1200
G1 E-0.8000 F1800
G1 Z0.600 F9000
G0 X90.844 Y90.840 F9000
G1 Z0.200 F9000
G1 E0.8000 F1800
G1 X99.160 Y99.156 E0.36873 F1200
G1 E-0.8000 F1800
G1 Z0.600 F9000
G0 X90.840 Y91.430 F9000
G1 Z0.200 F9000
G1 E0.8000 F1800
G1 X98.570 Y99.160 E0.34278 F1200
G1 E-0.8000 F1800
G1 Z0.600 F9000
G0 X90.840 Y92.024 F9000
G1 Z0.200 F9000
G1 E0.8000 F1800
G1 X97.976 Y99.160 E0.31644 F1200
G1 E-0.8000 F1800
G1 Z0.600 F9000
G0 X90.840 Y92.617 F9000
G1 Z0.200 F9000
G1 E0.8000 F1800
G1 X97.383 Y99.160 E0.29011 F1200
G1 E-0.8000 F1800
G1 Z0.600 F9000
G0 X90.840 Y93.211 F9000
G1 Z0.200 F9000
G1 E0.8000 F1800
G1 X96.789 Y99.160 E0.26377 F1200
G1 E-0.8000 F1800
G1 Z0.600 F9000
G0 X90.840 Y93.805 F9000
G1 Z0.200 F9000
G1 E0.8000 F1800
G1 X96.195 Y99.160 E0.23743 F1200
G1 E-0.8000 F1800
G1 Z0.600 F9000
G0 X90.840 Y94.399 F9000
G1 Z0.200 F9000
G1 E0.8000 F1800
G1 X95.601 Y99.160 E0.21109 F1200
G1 E-0.8000 F1800
G1 Z0.600 F9000
G0 X90.840 Y94.993 F9000
G1 Z0.200 F9000
G1 E0.8000 F1800
G1 X95.007 Y99.160 E0.18476 F1200
G1 E-0.8000 F1800
G1 Z0.600 F9000
G0 X90.840 Y95.587 F9000
G1 Z0.200 F9000
G1 E0.8000 F1800
G1 X94.413 Y99.160 E0.15842 F1200
G1 E-0.8000 F1800
G1 Z0.600 F9000
G0 X90.840 Y96.181 F9000
G1 Z0.200 F9000
G1 E0.8000 F1800
G1 X93.819 Y99.160 E0.13208 F1200
G1 E-0.8000 F1800
G1 Z0.600 F9000
G0 X90.840 Y96.775 F9000
G1 Z0.200 F9000
G1 E0.8000 F1800
G1 X93.225 Y99.160 E0.10574 F1200
G1 E-0.8000 F1800
G1 Z0.600 F9000
G0 X90.840 Y97.369 F9000
G1 Z0.200 F9000
G1 E0.8000 F1800
G1 X92.631 Y99.160 E0.07941 F1200
G1 E-0.8000 F1800
G1 Z0.600 F9000
G0 X90.840 Y97.963 F9000
G1 Z0.200 F9000
G1 E0.8000 F1800
G1 X92.037 Y99.160 E0.05307 F1200
G0 X90.840 Y98.557 F9000
G1 X91.443 Y99.160 E0.02673 F1200
G0 X90.840 Y99.151 F9000
G1 X90.849 Y99.160 E0.00039 F1200
; LAYER 1 Z0.400
M106 S85
G1 Z0.400 F9000
G1 E-0.8000 F1800
G1 Z0.800 F9000
G0 X99.790 Y99.790 F9000
G1 Z0.400 F9000
G1 E0.8000 F1800
G1 X90.210 Y99.790 E0.30037 F1786
G1 X90.210 Y90.210 E0.30037
G1 X99.790 Y90.210 E0.30037
G1 X99.790 Y99.790 E0.30037
G0 X99.370 Y99.370 F9000
G1 X90.630 Y99.370 E0.27404 F1786
G1 X90.630 Y90.630 E0.27404
G1 X99.370 Y90.630 E0.27404
G1 X99.370 Y99.370 E0.27404
G0 X99.160 Y98.566 F9000
G1 X98.566 Y99.160 E0.02634 F1786
G0 X99.160 Y97.972 F9000
G1 X97.972 Y99.160 E0.05268 F1786
G1 E-0.8000 F1800
G1 Z0.800 F9000
G0 X99.160 Y97.378 F9000
G1 Z0.400 F9000
G1 E0.8000 F1800
G1 X97.378 Y99.160 E0.07901 F1786
G1 E-0.8000 F1800
G1 Z0.800 F9000
G0 X99.160 Y96.784 F9000
G1 Z0.400 F9000
G1 E0.8000 F1800
G1 X96.784 Y99.160 E0.10535 F1786
G1 E-0.8000 F1800
G1 Z0.800 F9000
G0 X99.160 Y96.190 F9000
G1 Z0.400 F9000
G1 E0.8000 F1800
G1 X96.190 Y99.160 E0.13169 F1786
G1 E-0.8000 F1800
G1 Z0.800 F9000
G0 X99.160 Y95.596 F9000
G1 Z0.400 F9000
G1 E0.8000 F1800
G1 X95.596 Y99.160 E0.15803 F1786
G1 E-0.8000 F1800
G1 Z0.800 F9000
G0 X99.160 Y95.002 F9000
G1 Z0.400 F9000
G1 E0.8000 F1800
G1 X95.002 Y99.160 E0.18436 F1786
G1 E-0.8000 F1800
G1 Z0.800 F9000
G0 X99.160 Y94.408 F9000
G1 Z0.400 F9000
G1 E0.8000 F1800
G1 X94.408 Y99.160 E0.21070 F1786
G1 E-0.8000 F1800
G1 Z0.800 F9000
G0 X99.160 Y93.814 F9000
G1 Z0.400 F9000
G1 E0.8000 F1800
G1 X93.814 Y99.160 E0.23704 F1786
G1 E-0.8000 F1800
G1 Z0.800 F9000
G0 X99.160 Y93.220 F9000
G1 Z0.400 F9000
G1 E0.8000 F1800
G1 X93.220 Y99.160 E0.26338 F1786
G1 E-0.8000 F1800
G1 Z0.800 F9000
G0 X99.160 Y92.626 F9000
G1 Z0.400 F9000
G1 E0.8000 F1800
G1 X92.626 Y99.160 E0.28971 F1786
G1 E-0.8000 F1800
G1 Z0.800 F9000
G0 X99.160 Y92.032 F9000
G1 Z0.400 F9000
G1 E0.8000 F1800
G1 X92.032 Y99.160 E0.31605 F1786
G1 E-0.8000 F1800
G1 Z0.800 F9000
G0 X99.160 Y91.438 F9000
G1 Z0.400 F9000
G1 E0.8000 F1800
G1 X91.438 Y99.160 E0.34239 F1786
G1 E-0.8000 F1800
G1 Z0.800 F9000
G0 X99.160 Y90.844 F9000
G1 Z0.400 F9000
G1 E0.8000 F1800
G1 X90.844 Y99.160 E0.36873 F1786
G1 E-0.8000 F1800
G1 Z0.800 F9000
G0 X98.570 Y90.840 F9000
G1 Z0.400 F9000
G1 E0.8000 F1800
G1 X90.840 Y98.570 E0.34278 F1786
G1 E-0.8000 F1800
G1 Z0.800 F9000
G0 X97.976 Y90.840 F9000
G1 Z0.400 F9000
G1 E0.8000 F1800
G1 X90.840 Y97.976 E0.31644 F1786
G1 E-0.8000 F1800
G1 Z0.800 F9000
G0 X97.383 Y90.840 F9000
G1 Z0.400 F9000
G1 E0.8000 F1800
G1 X90.840 Y97.383 E0.29011 F1786
G1 E-0.8000 F1800
G1 Z0.800 F9000
G0 X96.789 Y90.840 F9000
G1 Z0.400 F9000
G1 E0.8000 F1800
G1 X90.840 Y96.789 E0.26377 F1786
G1 E-0.8000 F1800
G1 Z0.800 F9000
G0 X96.195 Y90.840 F9000
G1 Z0.400 F9000
G1 E0.8000 F1800
G1 X90.840 Y96.195 E0.23743 F1786
G1 E-0.8000 F1800
G1 Z0.800 F9000
G0 X95.601 Y90.840 F9000
G1 Z0.400 F9000
G1 E0.8000 F1800
G1 X90.840 Y95.601 E0.21109 F1786
G1 E-0.8000 F1800
G1 Z0.800 F9000
G0 X95.007 Y90.840 F9000
G1 Z0.400 F9000
G1 E0.8000 F1800
G1 X90.840 Y95.007 E0.18476 F1786
G1 E-0.8000 F1800
G1 Z0.800 F9000
G0 X94.413 Y90.840 F9000
G1 Z0.400 F9000
G1 E0.8000 F1800
G1 X90.840 Y94.413 E0.15842 F1786
G1 E-0.8000 F1800
G1 Z0.800 F9000
G0 X93.819 Y90.840 F9000
G1 Z0.400 F9000
G1 E0.8000 F1800
G1 X90.840 Y93.819 E0.13208 F1786
G1 E-0.8000 F1800
G1 Z0.800 F9000
G0 X93.225 Y90.840 F9000
G1 Z0.400 F9000
G1 E0.8000 F1800
G1 X90.840 Y93.225 E0.10574 F1786
G1 E-0.8000 F1800
G1 Z0.800 F9000
G0 X92.631 Y90.840 F9000
G1 Z0.400 F9000
G1 E0.8000 F1800
G1 X90.840 Y92.631 E0.07941 F1786
G1 E-0.8000 F1800
G1 Z0.800 F9000
G0 X92.037 Y90.840 F9000
G1 Z0.400 F9000
G1 E0.8000 F1800
G1 X90.840 Y92.037 E0.05307 F1786
G0 X91.443 Y90.840 F9000
G1 X90.840 Y91.443 E0.02673 F1786
G0 X90.849 Y90.840 F9000
G1 X90.840 Y90.849 E0.00039 F1786
; LAYER 2 Z0.600
M106 S170
G1 Z0.600 F9000
G1 E-0.8000 F1800
G1 Z1.000 F9000
G0 X99.790 Y99.790 F9000
G1 Z0.600 F9000
G1 E0.8000 F1800
G1 X90.210 Y99.790 E0.30037 F1786
G1 X90.210 Y90.210 E0.30037
G1 X99.790 Y90.210 E0.30037
G1 X99.790 Y99.790 E0.30037
G0 X99.370 Y99.370 F9000
G1 X90.630 Y99.370 E0.27404 F1786
G1 X90.630 Y90.630 E0.27404
G1 X99.370 Y90.630 E0.27404
G1 X99.370 Y99.370 E0.27404
G1 E-0.8000 F1800
G1 Z1.000 F9000
G0 X98.566 Y90.840 F9000
G1 Z0.600 F9000
G1 E0.8000 F1800
G1 X99.160 Y91.434 E0.02634 F1786
G0 X97.972 Y90.840 F9000
G1 X99.160 Y92.028 E0.05268 F1786
G1 E-0.8000 F1800
G1 Z1.000 F9000
G0 X97.378 Y90.840 F9000
G1 Z0.600 F9000
G1 E0.8000 F1800
G1 X99.160 Y92.622 E0.07901 F1786
G1 E-0.8000 F1800
G1 Z1.000 F9000
G0 X96.784 Y90.840 F9000
G1 Z0.600 F9000
G1 E0.8000 F1800
G1 X99.160 Y93.216 E0.10535 F1786
G1 E-0.8000 F1800
G1 Z1.000 F9000
G0 X96.190 Y90.840 F9000
G1 Z0.600 F9000
G1 E0.8000 F1800
G1 X99.160 Y93.810 E0.13169 F1786
G1 E-0.8000 F1800
G1 Z1.000 F9000
G0 X95.596 Y90.840 F9000
G1 Z0.600 F9000
G1 E0.8000 F1800
G1 X99.160 Y94.404 E0.15803 F1786
G1 E-0.8000 F1800
G1 Z1.000 F9000
G0 X95.002 Y90.840 F9000
G1 Z0.600 F9000
G1 E0.8000 F1800
G1 X99.160 Y94.998 E0.18436 F1786
G1 E-0.8000 F1800
G1 Z1.000 F9000
G0 X94.408 Y90.840 F9000
G1 Z0.600 F9000
G1 E0.8000 F1800
G1 X99.160 Y95.592 E0.21070 F1786
G1 E-0.8000 F1800
G1 Z1.000 F9000
G0 X93.814 Y90.840 F9000
G1 Z0.600 F9000
G1 E0.8000 F1800
G1 X99.160 Y96.186 E0.23704 F1786
G1 E-0.8000 F1800
G1 Z1.000 F9000
G0 X93.220 Y90.840 F9000
G1 Z0.600 F9000
G1 E0.8000 F1800
G1 X99.160 Y96.780 E0.26338 F1786
G1 E-0.8000 F1800
G1 Z1.000 F9000
G0 X92.626 Y90.840 F9000
G1 Z0.600 F9000
G1 E0.8000 F1800
G1 X99.160 Y97.374 E0.28971 F1786
G1 E-0.8000 F1800
G1 Z1.000 F9000
G0 X92.032 Y90.840 F9000
G1 Z0.600 F9000
G1 E0.8000 F1800
G1 X99.160 Y97.968 E0.31605 F1786
G1 E-0.8000 F1800
G1 Z1.000 F9000
G0 X91.438 Y90.840 F9000
G1 Z0.600 F9000
G1 E0.8000 F1800
G1 X99.160 Y98.562 E0.34239 F1786
G1 E-0.8000 F1800
G1 Z1.000 F9000
G0 X90.844 Y90.840 F9000
G1 Z0.600 F9000
G1 E0.8000 F1800
G1 X99.160 Y99.156 E0.36873 F1786
G1 E-0.8000 F1800
G1 Z1.000 F9000
G0 X90.840 Y91.430 F9000
G1 Z0.600 F9000
G1 E0.8000 F1800
G1 X98.570 Y99.160 E0.34278 F1786
G1 E-0.8000 F1800
G1 Z1.000 F9000
G0 X90.840 Y92.024 F9000
G1 Z0.600 F9000
G1 E0.8000 F1800
G1 X97.976 Y99.160 E0.31644 F1786
G1 E-0.8000 F1800
G1 Z1.000 F9000
G0 X90.840 Y92.617 F9000
G1 Z0.600 F9000
G1 E0.8000 F1800
G1 X97.383 Y99.160 E0.29011 F1786
G1 E-0.8000 F1800
G1 Z1.000 F9000
G0 X90.840 Y93.211 F9000
G1 Z0.600 F9000
G1 E0.8000 F1800
G1 X96.789 Y99.160 E0.26377 F1786
G1 E-0.8000 F1800
G1 Z1.000 F9000
G0 X90.840 Y93.805 F9000
G1 Z0.600 F9000
G1 E0.8000 F1800
G1 X96.195 Y99.160 E0.23743 F1786
G1 E-0.8000 F1800
G1 Z1.000 F9000
G0 X90.840 Y94.399 F9000
G1 Z0.600 F9000
G1 E0.8000 F1800
G1 X95.601 Y99.160 E0.21109 F1786
G1 E-0.8000 F1800
G1 Z1.000 F9000
G0 X90.840 Y94.993 F9000
G1 Z0.600 F9000
G1 E0.8000 F1800
G1 X95.007 Y99.160 E0.18476 F1786
G1 E-0.8000 F1800
G1 Z1.000 F9000
G0 X90.840 Y95.587 F9000
G1 Z0.600 F9000
G1 E0.8000 F1800
G1 X94.413 Y99.160 E0.15842 F1786
G1 E-0.8000 F1800
G1 Z1.000 F9000
G0 X90.840 Y96.181 F9000
G1 Z0.600 F9000
G1 E0.8000 F1800
G1 X93.819 Y99.160 E0.13208 F1786
G1 E-0.8000 F1800
G1 Z1.000 F9000
G0 X90.840 Y96.775 F9000
G1 Z0.600 F9000
G1 E0.8000 F1800
G1 X93.225 Y99.160 E0.10574 F1786
G1 E-0.8000 F1800
G1 Z1.000 F9000
G0 X90.840 Y97.369 F9000
G1 Z0.600 F9000
G1 E0.8000 F1800
G1 X92.631 Y99.160 E0.07941 F1786
G1 E-0.8000 F1800
G1 Z1.000 F9000
G0 X90.840 Y97.963 F9000
G1 Z0.600 F9000
G1 E0.8000 F1800
G1 X92.037 Y99.160 E0.05307 F1786
G0 X90.840 Y98.557 F9000
G1 X91.443 Y99.160 E0.02673 F1786
G0 X90.840 Y99.151 F9000
G1 X90.849 Y99.160 E0.00039 F1786
; LAYER 3 Z0.800
M106 S255
G1 Z0.800 F9000
G1 E-0.8000 F1800
G1 Z1.200 F9000
G0 X99.790 Y99.790 F9000
G1 Z0.800 F9000
G1 E0.8000 F1800
G1 X90.210 Y99.790 E0.30037 F1200
G1 X90.210 Y90.210 E0.30037
G1 X99.790 Y90.210 E0.30037
G1 X99.790 Y99.790 E0.30037
G0 X99.370 Y99.370 F9000
G1 X90.630 Y99.370 E0.27404 F1200
G1 X90.630 Y90.630 E0.27404
G1 X99.370 Y90.630 E0.27404
G1 X99.370 Y99.370 E0.27404
G1 E-0.8000 F1800
G1 Z1.200 F9000
G0 X99.160 Y91.240 F9000
G1 Z0.800 F9000
G1 E0.8000 F1800
G1 X91.240 Y99.160 E0.35117 F1200
G1 E-0.8000 F1800
G1 Z1.200 F9000
G0 X99.160 Y95.200 F9000
G1 Z0.800 F9000
G1 E0.8000 F1800
G1 X95.200 Y99.160 E0.17558 F1200
G1 E-0.8000 F1800
G1 Z1.200 F9000
G0 X95.601 Y90.840 F9000
G1 Z0.800 F9000
G1 E0.8000 F1800
G1 X90.840 Y95.601 E0.21109 F1200
G1 E-0.8000 F1800
G1 Z1.200 F9000
G0 X91.641 Y90.840 F9000
G1 Z0.800 F9000
G1 E0.8000 F1800
G1 X90.840 Y91.641 E0.03551 F1200
; LAYER 4 Z1.000
G1 Z1.000 F9000
G1 E-0.8000 F1800
G1 Z1.400 F9000
G0 X99.790 Y99.790 F9000
G1 Z1.000 F9000
G1 E0.8000 F1800
G1 X90.210 Y99.790 E0.30037 F1200
G1 X90.210 Y90.210 E0.30037
G1 X99.790 Y90.210 E0.30037
G1 X99.790 Y99.790 E0.30037
G0 X99.370 Y99.370 F9000
G1 X90.630 Y99.370 E0.27404 F1200
G1 X90.630 Y90.630 E0.27404
G1 X99.370 Y90.630 E0.27404
G1 X99.370 Y99.370 E0.27404
G1 E-0.8000 F1800
G1 Z1.400 F9000
G0 X90.840 Y98.359 F9000
G1 Z1.000 F9000
G1 E0.8000 F1800
G1 X91.641 Y99.160 E0.03551 F1200
G1 E-0.8000 F1800
G1 Z1.400 F9000
G0 X90.840 Y94.399 F9000
G1 Z1.000 F9000
G1 E0.8000 F1800
G1 X95.601 Y99.160 E0.21109 F1200
G1 E-0.8000 F1800
G1 Z1.400 F9000
G0 X91.240 Y90.840 F9000
G1 Z1.000 F9000
G1 E0.8000 F1800
G1 X99.160 Y98.760 E0.35117 F1200
G1 E-0.8000 F1800
G1 Z1.400 F9000
G0 X95.200 Y90.840 F9000
G1 Z1.000 F9000
G1 E0.8000 F1800
G1 X99.160 Y94.800 E0.17558 F1200
; LAYER 5 Z1.200
G1 Z1.200 F9000
G1 E-0.8000 F1800
G1 Z1.600 F9000
G0 X99.790 Y99.790 F9000
G1 Z1.200 F9000
G1 E0.8000 F1800
G1 X90.210 Y99.790 E0.30037 F1200
G1 X90.210 Y90.210 E0.30037
G1 X99.790 Y90.210 E0.30037
G1 X99.790 Y99.790 E0.30037
G0 X99.370 Y99.370 F9000
G1 X90.630 Y99.370 E0.27404 F1200
G1 X90.630 Y90.630 E0.27404
G1 X99.370 Y90.630 E0.27404
G1 X99.370 Y99.370 E0.27404
G1 E-0.8000 F1800
G1 Z1.600 F9000
G0 X99.160 Y91.240 F9000
G1 Z1.200 F9000
G1 E0.8000 F1800
G1 X91.240 Y99.160 E0.35117 F1200
G1 E-0.8000 F1800
G1 Z1.600 F9000
G0 X99.160 Y95.200 F9000
G1 Z1.200 F9000
G1 E0.8000 F1800
G1 X95.200 Y99.160 E0.17558 F1200
G1 E-0.8000 F1800
G1 Z1.600 F9000
G0 X95.601 Y90.840 F9000
G1 Z1.200 F9000
G1 E0.8000 F1800
G1 X90.840 Y95.601 E0.21109 F1200
G1 E-0.8000 F1800
G1 Z1.600 F9000
G0 X91.641 Y90.840 F9000
G1 Z1.200 F9000
G1 E0.8000 F1800
G1 X90.840 Y91.641 E0.03551 F1200
; LAYER 6 Z1.400
G1 Z1.400 F9000
G1 E-0.8000 F1800
G1 Z1.800 F9000
G0 X99.790 Y99.790 F9000
G1 Z1.400 F9000
G1 E0.8000 F1800
G1 X90.210 Y99.790 E0.30037 F1200
G1 X90.210 Y90.210 E0.30037
G1 X99.790 Y90.210 E0.30037
G1 X99.790 Y99.790 E0.30037
G0 X99.370 Y99.370 F9000
G1 X90.630 Y99.370 E0.27404 F1200
G1 X90.630 Y90.630 E0.27404
G1 X99.370 Y90.630 E0.27404
G1 X99.370 Y99.370 E0.27404
G1 E-0.8000 F1800
G1 Z1.800 F9000
G0 X90.840 Y98.359 F9000
G1 Z1.400 F9000
G1 E0.8000 F1800
G1 X91.641 Y99.160 E0.03551 F1200
G1 E-0.8000 F1800
G1 Z1.800 F9000
G0 X90.840 Y94.399 F9000
G1 Z1.400 F9000
G1 E0.8000 F1800
G1 X95.601 Y99.160 E0.21109 F1200
G1 E-0.8000 F1800
G1 Z1.800 F9000
G0 X91.240 Y90.840 F9000
G1 Z1.400 F9000
G1 E0.8000 F1800
G1 X99.160 Y98.760 E0.35117 F1200
G1 E-0.8000 F1800
G1 Z1.800 F9000
G0 X95.200 Y90.840 F9000
G1 Z1.400 F9000
G1 E0.8000 F1800
G1 X99.160 Y94.800 E0.17558 F1200
; LAYER 7 Z1.600
G1 Z1.600 F9000
G1 E-0.8000 F1800
G1 Z2.000 F9000
G0 X99.790 Y99.790 F9000
G1 Z1.600 F9000
G1 E0.8000 F1800
G1 X90.210 Y99.790 E0.30037 F1200
G1 X90.210 Y90.210 E0.30037
G1 X99.790 Y90.210 E0.30037
G1 X99.790 Y99.790 E0.30037
G0 X99.370 Y99.370 F9000
G1 X90.630 Y99.370 E0.27404 F1200
G1 X90.630 Y90.630 E0.27404
G1 X99.370 Y90.630 E0.27404
G1 X99.370 Y99.370 E0.27404
G1 E-0.8000 F1800
G1 Z2.000 F9000
G0 X99.160 Y91.240 F9000
G1 Z1.600 F9000
G1 E0.8000 F1800
G1 X91.240 Y99.160 E0.35117 F1200
G1 E-0.8000 F1800
G1 Z2.000 F9000
G0 X99.160 Y95.200 F9000
G1 Z1.600 F9000
G1 E0.8000 F1800
G1 X95.200 Y99.160 E0.17558 F1200
G1 E-0.8000 F1800
G1 Z2.000 F9000
G0 X95.601 Y90.840 F9000
G1 Z1.600 F9000
G1 E0.8000 F1800
G1 X90.840 Y95.601 E0.21109 F1200
G1 E-0.8000 F1800
G1 Z2.000 F9000
G0 X91.641 Y90.840 F9000
G1 Z1.600 F9000
G1 E0.8000 F1800
G1 X90.840 Y91.641 E0.03551 F1200
; LAYER 8 Z1.800
G1 Z1.800 F9000
G1 E-0.8000 F1800
G1 Z2.200 F9000
G0 X99.790 Y99.790 F9000
G1 Z1.800 F9000
G1 E0.8000 F1800
G1 X90.210 Y99.790 E0.30037 F1200
G1 X90.210 Y90.210 E0.30037
G1 X99.790 Y90.210 E0.30037
G1 X99.790 Y99.790 E0.30037
G0 X99.370 Y99.370 F9000
G1 X90.630 Y99.370 E0.27404 F1200
G1 X90.630 Y90.630 E0.27404
G1 X99.370 Y90.630 E0.27404
G1 X99.370 Y99.370 E0.27404
G1 E-0.8000 F1800
G1 Z2.200 F9000
G0 X90.840 Y98.359 F9000
G1 Z1.800 F9000
G1 E0.8000 F1800
G1 X91.641 Y99.160 E0.03551 F1200
G1 E-0.8000 F1800
G1 Z2.200 F9000
G0 X90.840 Y94.399 F9000
G1 Z1.800 F9000
G1 E0.8000 F1800
G1 X95.601 Y99.160 E0.21109 F1200
G1 E-0.8000 F1800
G1 Z2.200 F9000
G0 X91.240 Y90.840 F9000
G1 Z1.800 F9000
G1 E0.8000 F1800
G1 X99.160 Y98.760 E0.35117 F1200
G1 E-0.8000 F1800
G1 Z2.200 F9000
G0 X95.200 Y90.840 F9000
G1 Z1.800 F9000
G1 E0.8000 F1800
G1 X99.160 Y94.800 E0.17558 F1200
; LAYER 9 Z2.000
G1 Z2.000 F9000
G1 E-0.8000 F1800
G1 Z2.400 F9000
G0 X99.790 Y99.790 F9000
G1 Z2.000 F9000
G1 E0.8000 F1800
G1 X90.210 Y99.790 E0.30037 F1200
G1 X90.210 Y90.210 E0.30037
G1 X99.790 Y90.210 E0.30037
G1 X99.790 Y99.790 E0.30037
G0 X99.370 Y99.370 F9000
G1 X90.630 Y99.370 E0.27404 F1200
G1 X90.630 Y90.630 E0.27404
G1 X99.370 Y90.630 E0.27404
G1 X99.370 Y99.370 E0.27404
G1 E-0.8000 F1800
G1 Z2.400 F9000
G0 X99.160 Y91.240 F9000
G1 Z2.000 F9000
G1 E0.8000 F1800
G1 X91.240 Y99.160 E0.35117 F1200
G1 E-0.8000 F1800
G1 Z2.400 F9000
G0 X99.160 Y95.200 F9000
G1 Z2.000 F9000
G1 E0.8000 F1800
G1 X95.200 Y99.160 E0.17558 F1200
G1 E-0.8000 F1800
G1 Z2.400 F9000
G0 X95.601 Y90.840 F9000
G1 Z2.000 F9000
G1 E0.8000 F1800
G1 X90.840 Y95.601 E0.21109 F1200
G1 E-0.8000 F1800
G1 Z2.400 F9000
G0 X91.641 Y90.840 F9000
G1 Z2.000 F9000
G1 E0.8000 F1800
G1 X90.840 Y91.641 E0.03551 F1200
; LAYER 10 Z2.200
G1 Z2.200 F9000
G1 E-0.8000 F1800
G1 Z2.600 F9000
G0 X99.790 Y99.790 F9000
G1 Z2.200 F9000
G1 E0.8000 F1800
G1 X90.210 Y99.790 E0.30037 F1200
G1 X90.210 Y90.210 E0.30037
G1 X99.790 Y90.210 E0.30037
G1 X99.790 Y99.790 E0.30037
G0 X99.370 Y99.370 F9000
G1 X90.630 Y99.370 E0.27404 F1200
G1 X90.630 Y90.630 E0.27404
G1 X99.370 Y90.630 E0.27404
G1 X99.370 Y99.370 E0.27404
G1 E-0.8000 F1800
G1 Z2.600 F9000
G0 X90.840 Y98.359 F9000
G1 Z2.200 F9000
G1 E0.8000 F1800
G1 X91.641 Y99.160 E0.03551 F1200
G1 E-0.8000 F1800
G1 Z2.600 F9000
G0 X90.840 Y94.399 F9000
G1 Z2.200 F9000
G1 E0.8000 F1800
G1 X95.601 Y99.160 E0.21109 F1200
G1 E-0.8000 F1800
G1 Z2.600 F9000
G0 X91.240 Y90.840 F9000
G1 Z2.200 F9000
G1 E0.8000 F1800
G1 X99.160 Y98.760 E0.35117 F1200
G1 E-0.8000 F1800
G1 Z2.600 F9000
G0 X95.200 Y90.840 F9000
G1 Z2.200 F9000
G1 E0.8000 F1800
G1 X99.160 Y94.800 E0.17558 F1200
; LAYER 11 Z2.400
G1 Z2.400 F9000
G1 E-0.8000 F1800
G1 Z2.800 F9000
G0 X99.790 Y99.790 F9000
G1 Z2.400 F9000
G1 E0.8000 F1800
G1 X90.210 Y99.790 E0.30037 F1200
G1 X90.210 Y90.210 E0.30037
G1 X99.790 Y90.210 E0.30037
G1 X99.790 Y99.790 E0.30037
G0 X99.370 Y99.370 F9000
G1 X90.630 Y99.370 E0.27404 F1200
G1 X90.630 Y90.630 E0.27404
G1 X99.370 Y90.630 E0.27404
G1 X99.370 Y99.370 E0.27404
G1 E-0.8000 F1800
G1 Z2.800 F9000
G0 X99.160 Y91.240 F9000
G1 Z2.400 F9000
G1 E0.8000 F1800
G1 X91.240 Y99.160 E0.35117 F1200
G1 E-0.8000 F1800
G1 Z2.800 F9000
G0 X99.160 Y95.200 F9000
G1 Z2.400 F9000
G1 E0.8000 F1800
G1 X95.200 Y99.160 E0.17558 F1200
G1 E-0.8000 F1800
G1 Z2.800 F9000
G0 X95.601 Y90.840 F9000
G1 Z2.400 F9000
G1 E0.8000 F1800
G1 X90.840 Y95.601 E0.21109 F1200
G1 E-0.8000 F1800
G1 Z2.800 F9000
G0 X91.641 Y90.840 F9000
G1 Z2.400 F9000
G1 E0.8000 F1800
G1 X90.840 Y91.641 E0.03551 F1200
; LAYER 12 Z2.600
G1 Z2.600 F9000
G1 E-0.8000 F1800
G1 Z3.000 F9000
G0 X99.790 Y99.790 F9000
G1 Z2.600 F9000
G1 E0.8000 F1800
G1 X90.210 Y99.790 E0.30037 F1200
G1 X90.210 Y90.210 E0.30037
G1 X99.790 Y90.210 E0.30037
G1 X99.790 Y99.790 E0.30037
G0 X99.370 Y99.370 F9000
G1 X90.630 Y99.370 E0.27404 F1200
G1 X90.630 Y90.630 E0.27404
G1 X99.370 Y90.630 E0.27404
G1 X99.370 Y99.370 E0.27404
G1 E-0.8000 F1800
G1 Z3.000 F9000
G0 X90.840 Y98.359 F9000
G1 Z2.600 F9000
G1 E0.8000 F1800
G1 X91.641 Y99.160 E0.03551 F1200
G1 E-0.8000 F1800
G1 Z3.000 F9000
G0 X90.840 Y94.399 F9000
G1 Z2.600 F9000
G1 E0.8000 F1800
G1 X95.601 Y99.160 E0.21109 F1200
G1 E-0.8000 F1800
G1 Z3.000 F9000
G0 X91.240 Y90.840 F9000
G1 Z2.600 F9000
G1 E0.8000 F1800
G1 X99.160 Y98.760 E0.35117 F1200
G1 E-0.8000 F1800
G1 Z3.000 F9000
G0 X95.200 Y90.840 F9000
G1 Z2.600 F9000
G1 E0.8000 F1800
G1 X99.160 Y94.800 E0.17558 F1200
; LAYER 13 Z2.800
G1 Z2.800 F9000
G1 E-0.8000 F1800
G1 Z3.200 F9000
G0 X99.790 Y99.790 F9000
G1 Z2.800 F9000
G1 E0.8000 F1800
G1 X90.210 Y99.790 E0.30037 F1200
G1 X90.210 Y90.210 E0.30037
G1 X99.790 Y90.210 E0.30037
G1 X99.790 Y99.790 E0.30037
G0 X99.370 Y99.370 F9000
G1 X90.630 Y99.370 E0.27404 F1200
G1 X90.630 Y90.630 E0.27404
G1 X99.370 Y90.630 E0.27404
G1 X99.370 Y99.370 E0.27404
G1 E-0.8000 F1800
G1 Z3.200 F9000
G0 X99.160 Y91.240 F9000
G1 Z2.800 F9000
G1 E0.8000 F1800
G1 X91.240 Y99.160 E0.35117 F1200
G1 E-0.8000 F1800
G1 Z3.200 F9000
G0 X99.160 Y95.200 F9000
G1 Z2.800 F9000
G1 E0.8000 F1800
G1 X95.200 Y99.160 E0.17558 F1200
G1 E-0.8000 F1800
G1 Z3.200 F9000
G0 X95.601 Y90.840 F9000
G1 Z2.800 F9000
G1 E0.8000 F1800
G1 X90.840 Y95.601 E0.21109 F1200
G1 E-0.8000 F1800
G1 Z3.200 F9000
G0 X91.641 Y90.840 F9000
G1 Z2.800 F9000
G1 E0.8000 F1800
G1 X90.840 Y91.641 E0.03551 F1200
; LAYER 14 Z3.000
G1 Z3.000 F9000
G1 E-0.8000 F1800
G1 Z3.400 F9000
G0 X99.790 Y99.790 F9000
G1 Z3.000 F9000
G1 E0.8000 F1800
G1 X90.210 Y99.790 E0.30037 F1200
G1 X90.210 Y90.210 E0.30037
G1 X99.790 Y90.210 E0.30037
G1 X99.790 Y99.790 E0.30037
G0 X99.370 Y99.370 F9000
G1 X90.630 Y99.370 E0.27404 F1200
G1 X90.630 Y90.630 E0.27404
G1 X99.370 Y90.630 E0.27404
G1 X99.370 Y99.370 E0.27404
G1 E-0.8000 F1800
G1 Z3.400 F9000
G0 X90.840 Y98.359 F9000
G1 Z3.000 F9000
G1 E0.8000 F1800
G1 X91.641 Y99.160 E0.03551 F1200
G1 E-0.8000 F1800
G1 Z3.400 F9000
G0 X90.840 Y94.399 F9000
G1 Z3.000 F9000
G1 E0.8000 F1800
G1 X95.601 Y99.160 E0.21109 F1200
G1 E-0.8000 F1800
G1 Z3.400 F9000
G0 X91.240 Y90.840 F9000
G1 Z3.000 F9000
G1 E0.8000 F1800
G1 X99.160 Y98.760 E0.35117 F1200
G1 E-0.8000 F1800
G1 Z3.400 F9000
G0 X95.200 Y90.840 F9000
G1 Z3.000 F9000
G1 E0.8000 F1800
G1 X99.160 Y94.800 E0.17558 F1200
; LAYER 15 Z3.200
G1 Z3.200 F9000
G1 E-0.8000 F1800
G1 Z3.600 F9000
G0 X99.790 Y99.790 F9000
G1 Z3.200 F9000
G1 E0.8000 F1800
G1 X90.210 Y99.790 E0.30037 F1200
G1 X90.210 Y90.210 E0.30037
G1 X99.790 Y90.210 E0.30037
G1 X99.790 Y99.790 E0.30037
G0 X99.370 Y99.370 F9000
G1 X90.630 Y99.370 E0.27404 F1200
G1 X90.630 Y90.630 E0.27404
G1 X99.370 Y90.630 E0.27404
G1 X99.370 Y99.370 E0.27404
G1 E-0.8000 F1800
G1 Z3.600 F9000
G0 X99.160 Y91.240 F9000
G1 Z3.200 F9000
G1 E0.8000 F1800
G1 X91.240 Y99.160 E0.35117 F1200
G1 E-0.8000 F1800
G1 Z3.600 F9000
G0 X99.160 Y95.200 F9000
G1 Z3.200 F9000
G1 E0.8000 F1800
G1 X95.200 Y99.160 E0.17558 F1200
G1 E-0.8000 F1800
G1 Z3.600 F9000
G0 X95.601 Y90.840 F9000
G1 Z3.200 F9000
G1 E0.8000 F1800
G1 X90.840 Y95.601 E0.21109 F1200
G1 E-0.8000 F1800
G1 Z3.600 F9000
G0 X91.641 Y90.840 F9000
G1 Z3.200 F9000
G1 E0.8000 F1800
G1 X90.840 Y91.641 E0.03551 F1200
; LAYER 16 Z3.400
G1 Z3.400 F9000
G1 E-0.8000 F1800
G1 Z3.800 F9000
G0 X99.790 Y99.790 F9000
G1 Z3.400 F9000
G1 E0.8000 F1800
G1 X90.210 Y99.790 E0.30037 F1200
G1 X90.210 Y90.210 E0.30037
G1 X99.790 Y90.210 E0.30037
G1 X99.790 Y99.790 E0.30037
G0 X99.370 Y99.370 F9000
G1 X90.630 Y99.370 E0.27404 F1200
G1 X90.630 Y90.630 E0.27404
G1 X99.370 Y90.630 E0.27404
G1 X99.370 Y99.370 E0.27404
G1 E-0.8000 F1800
G1 Z3.800 F9000
G0 X90.840 Y98.359 F9000
G1 Z3.400 F9000
G1 E0.8000 F1800
G1 X91.641 Y99.160 E0.03551 F1200
G1 E-0.8000 F1800
G1 Z3.800 F9000
G0 X90.840 Y94.399 F9000
G1 Z3.400 F9000
G1 E0.8000 F1800
G1 X95.601 Y99.160 E0.21109 F1200
G1 E-0.8000 F1800
G1 Z3.800 F9000
G0 X91.240 Y90.840 F9000
G1 Z3.400 F9000
G1 E0.8000 F1800
G1 X99.160 Y98.760 E0.35117 F1200
G1 E-0.8000 F1800
G1 Z3.800 F9000
G0 X95.200 Y90.840 F9000
G1 Z3.400 F9000
G1 E0.8000 F1800
G1 X99.160 Y94.800 E0.17558 F1200
; LAYER 17 Z3.600
G1 Z3.600 F9000
G1 E-0.8000 F1800
G1 Z4.000 F9000
G0 X99.790 Y99.790 F9000
G1 Z3.600 F9000
G1 E0.8000 F1800
G1 X90.210 Y99.790 E0.30037 F1200
G1 X90.210 Y90.210 E0.30037
G1 X99.790 Y90.210 E0.30037
G1 X99.790 Y99.790 E0.30037
G0 X99.370 Y99.370 F9000
G1 X90.630 Y99.370 E0.27404 F1200
G1 X90.630 Y90.630 E0.27404
G1 X99.370 Y90.630 E0.27404
G1 X99.370 Y99.370 E0.27404
G1 E-0.8000 F1800
G1 Z4.000 F9000
G0 X99.160 Y91.240 F9000
G1 Z3.600 F9000
G1 E0.8000 F1800
G1 X91.240 Y99.160 E0.35117 F1200
G1 E-0.8000 F1800
G1 Z4.000 F9000
G0 X99.160 Y95.200 F9000
G1 Z3.600 F9000
G1 E0.8000 F1800
G1 X95.200 Y99.160 E0.17558 F1200
G1 E-0.8000 F1800
G1 Z4.000 F9000
G0 X95.601 Y90.840 F9000
G1 Z3.600 F9000
G1 E0.8000 F1800
G1 X90.840 Y95.601 E0.21109 F1200
G1 E-0.8000 F1800
G1 Z4.000 F9000
G0 X91.641 Y90.840 F9000
G1 Z3.600 F9000
G1 E0.8000 F1800
G1 X90.840 Y91.641 E0.03551 F1200
; LAYER 18 Z3.800
G1 Z3.800 F9000
G1 E-0.8000 F1800
G1 Z4.200 F9000
G0 X99.790 Y99.790 F9000
G1 Z3.800 F9000
G1 E0.8000 F1800
G1 X90.210 Y99.790 E0.30037 F1200
G1 X90.210 Y90.210 E0.30037
G1 X99.790 Y90.210 E0.30037
G1 X99.790 Y99.790 E0.30037
G0 X99.370 Y99.370 F9000
G1 X90.630 Y99.370 E0.27404 F1200
G1 X90.630 Y90.630 E0.27404
G1 X99.370 Y90.630 E0.27404
G1 X99.370 Y99.370 E0.27404
G1 E-0.8000 F1800
G1 Z4.200 F9000
G0 X90.840 Y98.359 F9000
G1 Z3.800 F9000
G1 E0.8000 F1800
G1 X91.641 Y99.160 E0.03551 F1200
G1 E-0.8000 F1800
G1 Z4.200 F9000
G0 X90.840 Y94.399 F9000
G1 Z3.800 F9000
G1 E0.8000 F1800
G1 X95.601 Y99.160 E0.21109 F1200
G1 E-0.8000 F1800
G1 Z4.200 F9000
G0 X91.240 Y90.840 F9000
G1 Z3.800 F9000
G1 E0.8000 F1800
G1 X99.160 Y98.760 E0.35117 F1200
G1 E-0.8000 F1800
G1 Z4.200 F9000
G0 X95.200 Y90.840 F9000
G1 Z3.800 F9000
G1 E0.8000 F1800
G1 X99.160 Y94.800 E0.17558 F1200
; LAYER 19 Z4.000
G1 Z4.000 F9000
G1 E-0.8000 F1800
G1 Z4.400 F9000
G0 X99.790 Y99.790 F9000
G1 Z4.000 F9000
G1 E0.8000 F1800
G1 X90.210 Y99.790 E0.30037 F1200
G1 X90.210 Y90.210 E0.30037
G1 X99.790 Y90.210 E0.30037
G1 X99.790 Y99.790 E0.30037
G0 X99.370 Y99.370 F9000
G1 X90.630 Y99.370 E0.27404 F1200
G1 X90.630 Y90.630 E0.27404
G1 X99.370 Y90.630 E0.27404
G1 X99.370 Y99.370 E0.27404
G1 E-0.8000 F1800
G1 Z4.400 F9000
G0 X99.160 Y91.240 F9000
G1 Z4.000 F9000
G1 E0.8000 F1800
G1 X91.240 Y99.160 E0.35117 F1200
G1 E-0.8000 F1800
G1 Z4.400 F9000
G0 X99.160 Y95.200 F9000
G1 Z4.000 F9000
G1 E0.8000 F1800
G1 X95.200 Y99.160 E0.17558 F1200
G1 E-0.8000 F1800
G1 Z4.400 F9000
G0 X95.601 Y90.840 F9000
G1 Z4.000 F9000
G1 E0.8000 F1800
G1 X90.840 Y95.601 E0.21109 F1200
G1 E-0.8000 F1800
G1 Z4.400 F9000
G0 X91.641 Y90.840 F9000
G1 Z4.000 F9000
G1 E0.8000 F1800
G1 X90.840 Y91.641 E0.03551 F1200
; LAYER 20 Z4.200
G1 Z4.200 F9000
G1 E-0.8000 F1800
G1 Z4.600 F9000
G0 X99.790 Y99.790 F9000
G1 Z4.200 F9000
G1 E0.8000 F1800
G1 X90.210 Y99.790 E0.30037 F1200
G1 X90.210 Y90.210 E0.30037
G1 X99.790 Y90.210 E0.30037
G1 X99.790 Y99.790 E0.30037
G0 X99.370 Y99.370 F9000
G1 X90.630 Y99.370 E0.27404 F1200
G1 X90.630 Y90.630 E0.27404
G1 X99.370 Y90.630 E0.27404
G1 X99.370 Y99.370 E0.27404
G1 E-0.8000 F1800
G1 Z4.600 F9000
G0 X90.840 Y98.359 F9000
G1 Z4.200 F9000
G1 E0.8000 F1800
G1 X91.641 Y99.160 E0.03551 F1200
G1 E-0.8000 F1800
G1 Z4.600 F9000
G0 X90.840 Y94.399 F9000
G1 Z4.200 F9000
G1 E0.8000 F1800
G1 X95.601 Y99.160 E0.21109 F1200
G1 E-0.8000 F1800
G1 Z4.600 F9000
G0 X91.240 Y90.840 F9000
G1 Z4.200 F9000
G1 E0.8000 F1800
G1 X99.160 Y98.760 E0.35117 F1200
G1 E-0.8000 F1800
G1 Z4.600 F9000
G0 X95.200 Y90.840 F9000
G1 Z4.200 F9000
G1 E0.8000 F1800
G1 X99.160 Y94.800 E0.17558 F1200
; LAYER 21 Z4.400
G1 Z4.400 F9000
G1 E-0.8000 F1800
G1 Z4.800 F9000
G0 X99.790 Y99.790 F9000
G1 Z4.400 F9000
G1 E0.8000 F1800
G1 X90.210 Y99.790 E0.30037 F1200
G1 X90.210 Y90.210 E0.30037
G1 X99.790 Y90.210 E0.30037
G1 X99.790 Y99.790 E0.30037
G0 X99.370 Y99.370 F9000
G1 X90.630 Y99.370 E0.27404 F1200
G1 X90.630 Y90.630 E0.27404
G1 X99.370 Y90.630 E0.27404
G1 X99.370 Y99.370 E0.27404
G1 E-0.8000 F1800
G1 Z4.800 F9000
G0 X99.160 Y91.240 F9000
G1 Z4.400 F9000
G1 E0.8000 F1800
G1 X91.240 Y99.160 E0.35117 F1200
G1 E-0.8000 F1800
G1 Z4.800 F9000
G0 X99.160 Y95.200 F9000
G1 Z4.400 F9000
G1 E0.8000 F1800
G1 X95.200 Y99.160 E0.17558 F1200
G1 E-0.8000 F1800
G1 Z4.800 F9000
G0 X95.601 Y90.840 F9000
G1 Z4.400 F9000
G1 E0.8000 F1800
G1 X90.840 Y95.601 E0.21109 F1200
G1 E-0.8000 F1800
G1 Z4.800 F9000
G0 X91.641 Y90.840 F9000
G1 Z4.400 F9000
G1 E0.8000 F1800
G1 X90.840 Y91.641 E0.03551 F1200
; LAYER 22 Z4.600
G1 Z4.600 F9000
G1 E-0.8000 F1800
G1 Z5.000 F9000
G0 X99.790 Y99.790 F9000
G1 Z4.600 F9000
G1 E0.8000 F1800
G1 X90.210 Y99.790 E0.30037 F1200
G1 X90.210 Y90.210 E0.30037
G1 X99.790 Y90.210 E0.30037
G1 X99.790 Y99.790 E0.30037
G0 X99.370 Y99.370 F9000
G1 X90.630 Y99.370 E0.27404 F1200
G1 X90.630 Y90.630 E0.27404
G1 X99.370 Y90.630 E0.27404
G1 X99.370 Y99.370 E0.27404
G1 E-0.8000 F1800
G1 Z5.000 F9000
G0 X90.840 Y98.359 F9000
G1 Z4.600 F9000
G1 E0.8000 F1800
G1 X91.641 Y99.160 E0.03551 F1200
G1 E-0.8000 F1800
G1 Z5.000 F9000
G0 X90.840 Y94.399 F9000
G1 Z4.600 F9000
G1 E0.8000 F1800
G1 X95.601 Y99.160 E0.21109 F1200
G1 E-0.8000 F1800
G1 Z5.000 F9000
G0 X91.240 Y90.840 F9000
G1 Z4.600 F9000
G1 E0.8000 F1800
G1 X99.160 Y98.760 E0.35117 F1200
G1 E-0.8000 F1800
G1 Z5.000 F9000
G0 X95.200 Y90.840 F9000
G1 Z4.600 F9000
G1 E0.8000 F1800
G1 X99.160 Y94.800 E0.17558 F1200
; LAYER 23 Z4.800
G1 Z4.800 F9000
G1 E-0.8000 F1800
G1 Z5.200 F9000
G0 X99.790 Y99.790 F9000
G1 Z4.800 F9000
G1 E0.8000 F1800
G1 X90.210 Y99.790 E0.30037 F1200
G1 X90.210 Y90.210 E0.30037
G1 X99.790 Y90.210 E0.30037
G1 X99.790 Y99.790 E0.30037
G0 X99.370 Y99.370 F9000
G1 X90.630 Y99.370 E0.27404 F1200
G1 X90.630 Y90.630 E0.27404
G1 X99.370 Y90.630 E0.27404
G1 X99.370 Y99.370 E0.27404
G1 E-0.8000 F1800
G1 Z5.200 F9000
G0 X99.160 Y91.240 F9000
G1 Z4.800 F9000
G1 E0.8000 F1800
G1 X91.240 Y99.160 E0.35117 F1200
G1 E-0.8000 F1800
G1 Z5.200 F9000
G0 X99.160 Y95.200 F9000
G1 Z4.800 F9000
G1 E0.8000 F1800
G1 X95.200 Y99.160 E0.17558 F1200
G1 E-0.8000 F1800
G1 Z5.200 F9000
G0 X95.601 Y90.840 F9000
G1 Z4.800 F9000
G1 E0.8000 F1800
G1 X90.840 Y95.601 E0.21109 F1200
G1 E-0.8000 F1800
G1 Z5.200 F9000
G0 X91.641 Y90.840 F9000
G1 Z4.800 F9000
G1 E0.8000 F1800
G1 X90.840 Y91.641 E0.03551 F1200
; LAYER 24 Z5.000
G1 Z5.000 F9000
G1 E-0.8000 F1800
G1 Z5.400 F9000
G0 X99.790 Y99.790 F9000
G1 Z5.000 F9000
G1 E0.8000 F1800
G1 X90.210 Y99.790 E0.30037 F1200
G1 X90.210 Y90.210 E0.30037
G1 X99.790 Y90.210 E0.30037
G1 X99.790 Y99.790 E0.30037
G0 X99.370 Y99.370 F9000
G1 X90.630 Y99.370 E0.27404 F1200
G1 X90.630 Y90.630 E0.27404
G1 X99.370 Y90.630 E0.27404
G1 X99.370 Y99.370 E0.27404
G1 E-0.8000 F1800
G1 Z5.400 F9000
G0 X90.840 Y98.359 F9000
G1 Z5.000 F9000
G1 E0.8000 F1800
G1 X91.641 Y99.160 E0.03551 F1200
G1 E-0.8000 F1800
G1 Z5.400 F9000
G0 X90.840 Y94.399 F9000
G1 Z5.000 F9000
G1 E0.8000 F1800
G1 X95.601 Y99.160 E0.21109 F1200
G1 E-0.8000 F1800
G1 Z5.400 F9000
G0 X91.240 Y90.840 F9000
G1 Z5.000 F9000
G1 E0.8000 F1800
G1 X99.160 Y98.760 E0.35117 F1200
G1 E-0.8000 F1800
G1 Z5.400 F9000
G0 X95.200 Y90.840 F9000
G1 Z5.000 F9000
G1 E0.8000 F1800
G1 X99.160 Y94.800 E0.17558 F1200
; LAYER 25 Z5.200
G1 Z5.200 F9000
G1 E-0.8000 F1800
G1 Z5.600 F9000
G0 X99.790 Y99.790 F9000
G1 Z5.200 F9000
G1 E0.8000 F1800
G1 X90.210 Y99.790 E0.30037 F1200
G1 X90.210 Y90.210 E0.30037
G1 X99.790 Y90.210 E0.30037
G1 X99.790 Y99.790 E0.30037
G0 X99.370 Y99.370 F9000
G1 X90.630 Y99.370 E0.27404 F1200
G1 X90.630 Y90.630 E0.27404
G1 X99.370 Y90.630 E0.27404
G1 X99.370 Y99.370 E0.27404
G1 E-0.8000 F1800
G1 Z5.600 F9000
G0 X99.160 Y91.240 F9000
G1 Z5.200 F9000
G1 E0.8000 F1800
G1 X91.240 Y99.160 E0.35117 F1200
G1 E-0.8000 F1800
G1 Z5.600 F9000
G0 X99.160 Y95.200 F9000
G1 Z5.200 F9000
G1 E0.8000 F1800
G1 X95.200 Y99.160 E0.17558 F1200
G1 E-0.8000 F1800
G1 Z5.600 F9000
G0 X95.601 Y90.840 F9000
G1 Z5.200 F9000
G1 E0.8000 F1800
G1 X90.840 Y95.601 E0.21109 F1200
G1 E-0.8000 F1800
G1 Z5.600 F9000
G0 X91.641 Y90.840 F9000
G1 Z5.200 F9000
G1 E0.8000 F1800
G1 X90.840 Y91.641 E0.03551 F1200
; LAYER 26 Z5.400
G1 Z5.400 F9000
G1 E-0.8000 F1800
G1 Z5.800 F9000
G0 X99.790 Y99.790 F9000
G1 Z5.400 F9000
G1 E0.8000 F1800
G1 X90.210 Y99.790 E0.30037 F1200
G1 X90.210 Y90.210 E0.30037
G1 X99.790 Y90.210 E0.30037
G1 X99.790 Y99.790 E0.30037
G0 X99.370 Y99.370 F9000
G1 X90.630 Y99.370 E0.27404 F1200
G1 X90.630 Y90.630 E0.27404
G1 X99.370 Y90.630 E0.27404
G1 X99.370 Y99.370 E0.27404
G1 E-0.8000 F1800
G1 Z5.800 F9000
G0 X90.840 Y98.359 F9000
G1 Z5.400 F9000
G1 E0.8000 F1800
G1 X91.641 Y99.160 E0.03551 F1200
G1 E-0.8000 F1800
G1 Z5.800 F9000
G0 X90.840 Y94.399 F9000
G1 Z5.400 F9000
G1 E0.8000 F1800
G1 X95.601 Y99.160 E0.21109 F1200
G1 E-0.8000 F1800
G1 Z5.800 F9000
G0 X91.240 Y90.840 F9000
G1 Z5.400 F9000
G1 E0.8000 F1800
G1 X99.160 Y98.760 E0.35117 F1200
G1 E-0.8000 F1800
G1 Z5.800 F9000
G0 X95.200 Y90.840 F9000
G1 Z5.400 F9000
G1 E0.8000 F1800
G1 X99.160 Y94.800 E0.17558 F1200
; LAYER 27 Z5.600
G1 Z5.600 F9000
G1 E-0.8000 F1800
G1 Z6.000 F9000
G0 X99.790 Y99.790 F9000
G1 Z5.600 F9000
G1 E0.8000 F1800
G1 X90.210 Y99.790 E0.30037 F1200
G1 X90.210 Y90.210 E0.30037
G1 X99.790 Y90.210 E0.30037
G1 X99.790 Y99.790 E0.30037
G0 X99.370 Y99.370 F9000
G1 X90.630 Y99.370 E0.27404 F1200
G1 X90.630 Y90.630 E0.27404
G1 X99.370 Y90.630 E0.27404
G1 X99.370 Y99.370 E0.27404
G1 E-0.8000 F1800
G1 Z6.000 F9000
G0 X99.160 Y91.240 F9000
G1 Z5.600 F9000
G1 E0.8000 F1800
G1 X91.240 Y99.160 E0.35117 F1200
G1 E-0.8000 F1800
G1 Z6.000 F9000
G0 X99.160 Y95.200 F9000
G1 Z5.600 F9000
G1 E0.8000 F1800
G1 X95.200 Y99.160 E0.17558 F1200
G1 E-0.8000 F1800
G1 Z6.000 F9000
G0 X95.601 Y90.840 F9000
G1 Z5.600 F9000
G1 E0.8000 F1800
G1 X90.840 Y95.601 E0.21109 F1200
G1 E-0.8000 F1800
G1 Z6.000 F9000
G0 X91.641 Y90.840 F9000
G1 Z5.600 F9000
G1 E0.8000 F1800
G1 X90.840 Y91.641 E0.03551 F1200
; LAYER 28 Z5.800
G1 Z5.800 F9000
G1 E-0.8000 F1800
G1 Z6.200 F9000
G0 X99.790 Y99.790 F9000
G1 Z5.800 F9000
G1 E0.8000 F1800
G1 X90.210 Y99.790 E0.30037 F1200
G1 X90.210 Y90.210 E0.30037
G1 X99.790 Y90.210 E0.30037
G1 X99.790 Y99.790 E0.30037
G0 X99.370 Y99.370 F9000
G1 X90.630 Y99.370 E0.27404 F1200
G1 X90.630 Y90.630 E0.27404
G1 X99.370 Y90.630 E0.27404
G1 X99.370 Y99.370 E0.27404
G1 E-0.8000 F1800
G1 Z6.200 F9000
G0 X90.840 Y98.359 F9000
G1 Z5.800 F9000
G1 E0.8000 F1800
G1 X91.641 Y99.160 E0.03551 F1200
G1 E-0.8000 F1800
G1 Z6.200 F9000
G0 X90.840 Y94.399 F9000
G1 Z5.800 F9000
G1 E0.8000 F1800
G1 X95.601 Y99.160 E0.21109 F1200
G1 E-0.8000 F1800
G1 Z6.200 F9000
G0 X91.240 Y90.840 F9000
G1 Z5.800 F9000
G1 E0.8000 F1800
G1 X99.160 Y98.760 E0.35117 F1200
G1 E-0.8000 F1800
G1 Z6.200 F9000
G0 X95.200 Y90.840 F9000
G1 Z5.800 F9000
G1 E0.8000 F1800
G1 X99.160 Y94.800 E0.17558 F1200
; LAYER 29 Z6.000
G1 Z6.000 F9000
G1 E-0.8000 F1800
G1 Z6.400 F9000
G0 X99.790 Y99.790 F9000
G1 Z6.000 F9000
G1 E0.8000 F1800
G1 X90.210 Y99.790 E0.30037 F1200
G1 X90.210 Y90.210 E0.30037
G1 X99.790 Y90.210 E0.30037
G1 X99.790 Y99.790 E0.30037
G0 X99.370 Y99.370 F9000
G1 X90.630 Y99.370 E0.27404 F1200
G1 X90.630 Y90.630 E0.27404
G1 X99.370 Y90.630 E0.27404
G1 X99.370 Y99.370 E0.27404
G1 E-0.8000 F1800
G1 Z6.400 F9000
G0 X99.160 Y91.240 F9000
G1 Z6.000 F9000
G1 E0.8000 F1800
G1 X91.240 Y99.160 E0.35117 F1200
G1 E-0.8000 F1800
G1 Z6.400 F9000
G0 X99.160 Y95.200 F9000
G1 Z6.000 F9000
G1 E0.8000 F1800
G1 X95.200 Y99.160 E0.17558 F1200
G1 E-0.8000 F1800
G1 Z6.400 F9000
G0 X95.601 Y90.840 F9000
G1 Z6.000 F9000
G1 E0.8000 F1800
G1 X90.840 Y95.601 E0.21109 F1200
G1 E-0.8000 F1800
G1 Z6.400 F9000
G0 X91.641 Y90.840 F9000
G1 Z6.000 F9000
G1 E0.8000 F1800
G1 X90.840 Y91.641 E0.03551 F1200
; LAYER 30 Z6.200
G1 Z6.200 F9000
G1 E-0.8000 F1800
G1 Z6.600 F9000
G0 X99.790 Y99.790 F9000
G1 Z6.200 F9000
G1 E0.8000 F1800
G1 X90.210 Y99.790 E0.30037 F1200
G1 X90.210 Y90.210 E0.30037
G1 X99.790 Y90.210 E0.30037
G1 X99.790 Y99.790 E0.30037
G0 X99.370 Y99.370 F9000
G1 X90.630 Y99.370 E0.27404 F1200
G1 X90.630 Y90.630 E0.27404
G1 X99.370 Y90.630 E0.27404
G1 X99.370 Y99.370 E0.27404
G1 E-0.8000 F1800
G1 Z6.600 F9000
G0 X90.840 Y98.359 F9000
G1 Z6.200 F9000
G1 E0.8000 F1800
G1 X91.641 Y99.160 E0.03551 F1200
G1 E-0.8000 F1800
G1 Z6.600 F9000
G0 X90.840 Y94.399 F9000
G1 Z6.200 F9000
G1 E0.8000 F1800
G1 X95.601 Y99.160 E0.21109 F1200
G1 E-0.8000 F1800
G1 Z6.600 F9000
G0 X91.240 Y90.840 F9000
G1 Z6.200 F9000
G1 E0.8000 F1800
G1 X99.160 Y98.760 E0.35117 F1200
G1 E-0.8000 F1800
G1 Z6.600 F9000
G0 X95.200 Y90.840 F9000
G1 Z6.200 F9000
G1 E0.8000 F1800
G1 X99.160 Y94.800 E0.17558 F1200
; LAYER 31 Z6.400
G1 Z6.400 F9000
G1 E-0.8000 F1800
G1 Z6.800 F9000
G0 X99.790 Y99.790 F9000
G1 Z6.400 F9000
G1 E0.8000 F1800
G1 X90.210 Y99.790 E0.30037 F1200
G1 X90.210 Y90.210 E0.30037
G1 X99.790 Y90.210 E0.30037
G1 X99.790 Y99.790 E0.30037
G0 X99.370 Y99.370 F9000
G1 X90.630 Y99.370 E0.27404 F1200
G1 X90.630 Y90.630 E0.27404
G1 X99.370 Y90.630 E0.27404
G1 X99.370 Y99.370 E0.27404
G1 E-0.8000 F1800
G1 Z6.800 F9000
G0 X99.160 Y91.240 F9000
G1 Z6.400 F9000
G1 E0.8000 F1800
G1 X91.240 Y99.160 E0.35117 F1200
G1 E-0.8000 F1800
G1 Z6.800 F9000
G0 X99.160 Y95.200 F9000
G1 Z6.400 F9000
G1 E0.8000 F1800
G1 X95.200 Y99.160 E0.17558 F1200
G1 E-0.8000 F1800
G1 Z6.800 F9000
G0 X95.601 Y90.840 F9000
G1 Z6.400 F9000
G1 E0.8000 F1800
G1 X90.840 Y95.601 E0.21109 F1200
G1 E-0.8000 F1800
G1 Z6.800 F9000
G0 X91.641 Y90.840 F9000
G1 Z6.400 F9000
G1 E0.8000 F1800
G1 X90.840 Y91.641 E0.03551 F1200
; LAYER 32 Z6.600
G1 Z6.600 F9000
G1 E-0.8000 F1800
G1 Z7.000 F9000
G0 X99.790 Y99.790 F9000
G1 Z6.600 F9000
G1 E0.8000 F1800
G1 X90.210 Y99.790 E0.30037 F1200
G1 X90.210 Y90.210 E0.30037
G1 X99.790 Y90.210 E0.30037
G1 X99.790 Y99.790 E0.30037
G0 X99.370 Y99.370 F9000
G1 X90.630 Y99.370 E0.27404 F1200
G1 X90.630 Y90.630 E0.27404
G1 X99.370 Y90.630 E0.27404
G1 X99.370 Y99.370 E0.27404
G1 E-0.8000 F1800
G1 Z7.000 F9000
G0 X90.840 Y98.359 F9000
G1 Z6.600 F9000
G1 E0.8000 F1800
G1 X91.641 Y99.160 E0.03551 F1200
G1 E-0.8000 F1800
G1 Z7.000 F9000
G0 X90.840 Y94.399 F9000
G1 Z6.600 F9000
G1 E0.8000 F1800
G1 X95.601 Y99.160 E0.21109 F1200
G1 E-0.8000 F1800
G1 Z7.000 F9000
G0 X91.240 Y90.840 F9000
G1 Z6.600 F9000
G1 E0.8000 F1800
G1 X99.160 Y98.760 E0.35117 F1200
G1 E-0.8000 F1800
G1 Z7.000 F9000
G0 X95.200 Y90.840 F9000
G1 Z6.600 F9000
G1 E0.8000 F1800
G1 X99.160 Y94.800 E0.17558 F1200
; LAYER 33 Z6.800
G1 Z6.800 F9000
G1 E-0.8000 F1800
G1 Z7.200 F9000
G0 X99.790 Y99.790 F9000
G1 Z6.800 F9000
G1 E0.8000 F1800
G1 X90.210 Y99.790 E0.30037 F1200
G1 X90.210 Y90.210 E0.30037
G1 X99.790 Y90.210 E0.30037
G1 X99.790 Y99.790 E0.30037
G0 X99.370 Y99.370 F9000
G1 X90.630 Y99.370 E0.27404 F1200
G1 X90.630 Y90.630 E0.27404
G1 X99.370 Y90.630 E0.27404
G1 X99.370 Y99.370 E0.27404
G1 E-0.8000 F1800
G1 Z7.200 F9000
G0 X99.160 Y91.240 F9000
G1 Z6.800 F9000
G1 E0.8000 F1800
G1 X91.240 Y99.160 E0.35117 F1200
G1 E-0.8000 F1800
G1 Z7.200 F9000
G0 X99.160 Y95.200 F9000
G1 Z6.800 F9000
G1 E0.8000 F1800
G1 X95.200 Y99.160 E0.17558 F1200
G1 E-0.8000 F1800
G1 Z7.200 F9000
G0 X95.601 Y90.840 F9000
G1 Z6.800 F9000
G1 E0.8000 F1800
G1 X90.840 Y95.601 E0.21109 F1200
G1 E-0.8000 F1800
G1 Z7.200 F9000
G0 X91.641 Y90.840 F9000
G1 Z6.800 F9000
G1 E0.8000 F1800
G1 X90.840 Y91.641 E0.03551 F1200
; LAYER 34 Z7.000
G1 Z7.000 F9000
G1 E-0.8000 F1800
G1 Z7.400 F9000
G0 X99.790 Y99.790 F9000
G1 Z7.000 F9000
G1 E0.8000 F1800
G1 X90.210 Y99.790 E0.30037 F1200
G1 X90.210 Y90.210 E0.30037
G1 X99.790 Y90.210 E0.30037
G1 X99.790 Y99.790 E0.30037
G0 X99.370 Y99.370 F9000
G1 X90.630 Y99.370 E0.27404 F1200
G1 X90.630 Y90.630 E0.27404
G1 X99.370 Y90.630 E0.27404
G1 X99.370 Y99.370 E0.27404
G1 E-0.8000 F1800
G1 Z7.400 F9000
G0 X90.840 Y98.359 F9000
G1 Z7.000 F9000
G1 E0.8000 F1800
G1 X91.641 Y99.160 E0.03551 F1200
G1 E-0.8000 F1800
G1 Z7.400 F9000
G0 X90.840 Y94.399 F9000
G1 Z7.000 F9000
G1 E0.8000 F1800
G1 X95.601 Y99.160 E0.21109 F1200
G1 E-0.8000 F1800
G1 Z7.400 F9000
G0 X91.240 Y90.840 F9000
G1 Z7.000 F9000
G1 E0.8000 F1800
G1 X99.160 Y98.760 E0.35117 F1200
G1 E-0.8000 F1800
G1 Z7.400 F9000
G0 X95.200 Y90.840 F9000
G1 Z7.000 F9000
G1 E0.8000 F1800
G1 X99.160 Y94.800 E0.17558 F1200
; LAYER 35 Z7.200
G1 Z7.200 F9000
G1 E-0.8000 F1800
G1 Z7.600 F9000
G0 X99.790 Y99.790 F9000
G1 Z7.200 F9000
G1 E0.8000 F1800
G1 X90.210 Y99.790 E0.30037 F1200
G1 X90.210 Y90.210 E0.30037
G1 X99.790 Y90.210 E0.30037
G1 X99.790 Y99.790 E0.30037
G0 X99.370 Y99.370 F9000
G1 X90.630 Y99.370 E0.27404 F1200
G1 X90.630 Y90.630 E0.27404
G1 X99.370 Y90.630 E0.27404
G1 X99.370 Y99.370 E0.27404
G1 E-0.8000 F1800
G1 Z7.600 F9000
G0 X99.160 Y91.240 F9000
G1 Z7.200 F9000
G1 E0.8000 F1800
G1 X91.240 Y99.160 E0.35117 F1200
G1 E-0.8000 F1800
G1 Z7.600 F9000
G0 X99.160 Y95.200 F9000
G1 Z7.200 F9000
G1 E0.8000 F1800
G1 X95.200 Y99.160 E0.17558 F1200
G1 E-0.8000 F1800
G1 Z7.600 F9000
G0 X95.601 Y90.840 F9000
G1 Z7.200 F9000
G1 E0.8000 F1800
G1 X90.840 Y95.601 E0.21109 F1200
G1 E-0.8000 F1800
G1 Z7.600 F9000
G0 X91.641 Y90.840 F9000
G1 Z7.200 F9000
G1 E0.8000 F1800
G1 X90.840 Y91.641 E0.03551 F1200
; LAYER 36 Z7.400
G1 Z7.400 F9000
G1 E-0.8000 F1800
G1 Z7.800 F9000
G0 X99.790 Y99.790 F9000
G1 Z7.400 F9000
G1 E0.8000 F1800
G1 X90.210 Y99.790 E0.30037 F1200
G1 X90.210 Y90.210 E0.30037
G1 X99.790 Y90.210 E0.30037
G1 X99.790 Y99.790 E0.30037
G0 X99.370 Y99.370 F9000
G1 X90.630 Y99.370 E0.27404 F1200
G1 X90.630 Y90.630 E0.27404
G1 X99.370 Y90.630 E0.27404
G1 X99.370 Y99.370 E0.27404
G1 E-0.8000 F1800
G1 Z7.800 F9000
G0 X90.840 Y98.359 F9000
G1 Z7.400 F9000
G1 E0.8000 F1800
G1 X91.641 Y99.160 E0.03551 F1200
G1 E-0.8000 F1800
G1 Z7.800 F9000
G0 X90.840 Y94.399 F9000
G1 Z7.400 F9000
G1 E0.8000 F1800
G1 X95.601 Y99.160 E0.21109 F1200
G1 E-0.8000 F1800
G1 Z7.800 F9000
G0 X91.240 Y90.840 F9000
G1 Z7.400 F9000
G1 E0.8000 F1800
G1 X99.160 Y98.760 E0.35117 F1200
G1 E-0.8000 F1800
G1 Z7.800 F9000
G0 X95.200 Y90.840 F9000
G1 Z7.400 F9000
G1 E0.8000 F1800
G1 X99.160 Y94.800 E0.17558 F1200
; LAYER 37 Z7.600
G1 Z7.600 F9000
G1 E-0.8000 F1800
G1 Z8.000 F9000
G0 X99.790 Y99.790 F9000
G1 Z7.600 F9000
G1 E0.8000 F1800
G1 X90.210 Y99.790 E0.30037 F1200
G1 X90.210 Y90.210 E0.30037
G1 X99.790 Y90.210 E0.30037
G1 X99.790 Y99.790 E0.30037
G0 X99.370 Y99.370 F9000
G1 X90.630 Y99.370 E0.27404 F1200
G1 X90.630 Y90.630 E0.27404
G1 X99.370 Y90.630 E0.27404
G1 X99.370 Y99.370 E0.27404
G1 E-0.8000 F1800
G1 Z8.000 F9000
G0 X99.160 Y91.240 F9000
G1 Z7.600 F9000
G1 E0.8000 F1800
G1 X91.240 Y99.160 E0.35117 F1200
G1 E-0.8000 F1800
G1 Z8.000 F9000
G0 X99.160 Y95.200 F9000
G1 Z7.600 F9000
G1 E0.8000 F1800
G1 X95.200 Y99.160 E0.17558 F1200
G1 E-0.8000 F1800
G1 Z8.000 F9000
G0 X95.601 Y90.840 F9000
G1 Z7.600 F9000
G1 E0.8000 F1800
G1 X90.840 Y95.601 E0.21109 F1200
G1 E-0.8000 F1800
G1 Z8.000 F9000
G0 X91.641 Y90.840 F9000
G1 Z7.600 F9000
G1 E0.8000 F1800
G1 X90.840 Y91.641 E0.03551 F1200
; LAYER 38 Z7.800
G1 Z7.800 F9000
G1 E-0.8000 F1800
G1 Z8.200 F9000
G0 X99.790 Y99.790 F9000
G1 Z7.800 F9000
G1 E0.8000 F1800
G1 X90.210 Y99.790 E0.30037 F1200
G1 X90.210 Y90.210 E0.30037
G1 X99.790 Y90.210 E0.30037
G1 X99.790 Y99.790 E0.30037
G0 X99.370 Y99.370 F9000
G1 X90.630 Y99.370 E0.27404 F1200
G1 X90.630 Y90.630 E0.27404
G1 X99.370 Y90.630 E0.27404
G1 X99.370 Y99.370 E0.27404
G1 E-0.8000 F1800
G1 Z8.200 F9000
G0 X90.840 Y98.359 F9000
G1 Z7.800 F9000
G1 E0.8000 F1800
G1 X91.641 Y99.160 E0.03551 F1200
G1 E-0.8000 F1800
G1 Z8.200 F9000
G0 X90.840 Y94.399 F9000
G1 Z7.800 F9000
G1 E0.8000 F1800
G1 X95.601 Y99.160 E0.21109 F1200
G1 E-0.8000 F1800
G1 Z8.200 F9000
G0 X91.240 Y90.840 F9000
G1 Z7.800 F9000
G1 E0.8000 F1800
G1 X99.160 Y98.760 E0.35117 F1200
G1 E-0.8000 F1800
G1 Z8.200 F9000
G0 X95.200 Y90.840 F9000
G1 Z7.800 F9000
G1 E0.8000 F1800
G1 X99.160 Y94.800 E0.17558 F1200
; LAYER 39 Z8.000
G1 Z8.000 F9000
G1 E-0.8000 F1800
G1 Z8.400 F9000
G0 X99.790 Y99.790 F9000
G1 Z8.000 F9000
G1 E0.8000 F1800
G1 X90.210 Y99.790 E0.30037 F1200
G1 X90.210 Y90.210 E0.30037
G1 X99.790 Y90.210 E0.30037
G1 X99.790 Y99.790 E0.30037
G0 X99.370 Y99.370 F9000
G1 X90.630 Y99.370 E0.27404 F1200
G1 X90.630 Y90.630 E0.27404
G1 X99.370 Y90.630 E0.27404
G1 X99.370 Y99.370 E0.27404
G1 E-0.8000 F1800
G1 Z8.400 F9000
G0 X99.160 Y91.240 F9000
G1 Z8.000 F9000
G1 E0.8000 F1800
G1 X91.240 Y99.160 E0.35117 F1200
G1 E-0.8000 F1800
G1 Z8.400 F9000
G0 X99.160 Y95.200 F9000
G1 Z8.000 F9000
G1 E0.8000 F1800
G1 X95.200 Y99.160 E0.17558 F1200
G1 E-0.8000 F1800
G1 Z8.400 F9000
G0 X95.601 Y90.840 F9000
G1 Z8.000 F9000
G1 E0.8000 F1800
G1 X90.840 Y95.601 E0.21109 F1200
G1 E-0.8000 F1800
G1 Z8.400 F9000
G0 X91.641 Y90.840 F9000
G1 Z8.000 F9000
G1 E0.8000 F1800
G1 X90.840 Y91.641 E0.03551 F1200
; LAYER 40 Z8.200
G1 Z8.200 F9000
G1 E-0.8000 F1800
G1 Z8.600 F9000
G0 X99.790 Y99.790 F9000
G1 Z8.200 F9000
G1 E0.8000 F1800
G1 X90.210 Y99.790 E0.30037 F1200
G1 X90.210 Y90.210 E0.30037
G1 X99.790 Y90.210 E0.30037
G1 X99.790 Y99.790 E0.30037
G0 X99.370 Y99.370 F9000
G1 X90.630 Y99.370 E0.27404 F1200
G1 X90.630 Y90.630 E0.27404
G1 X99.370 Y90.630 E0.27404
G1 X99.370 Y99.370 E0.27404
G1 E-0.8000 F1800
G1 Z8.600 F9000
G0 X90.840 Y98.359 F9000
G1 Z8.200 F9000
G1 E0.8000 F1800
G1 X91.641 Y99.160 E0.03551 F1200
G1 E-0.8000 F1800
G1 Z8.600 F9000
G0 X90.840 Y94.399 F9000
G1 Z8.200 F9000
G1 E0.8000 F1800
G1 X95.601 Y99.160 E0.21109 F1200
G1 E-0.8000 F1800
G1 Z8.600 F9000
G0 X91.240 Y90.840 F9000
G1 Z8.200 F9000
G1 E0.8000 F1800
G1 X99.160 Y98.760 E0.35117 F1200
G1 E-0.8000 F1800
G1 Z8.600 F9000
G0 X95.200 Y90.840 F9000
G1 Z8.200 F9000
G1 E0.8000 F1800
G1 X99.160 Y94.800 E0.17558 F1200
; LAYER 41 Z8.400
G1 Z8.400 F9000
G1 E-0.8000 F1800
G1 Z8.800 F9000
G0 X99.790 Y99.790 F9000
G1 Z8.400 F9000
G1 E0.8000 F1800
G1 X90.210 Y99.790 E0.30037 F1200
G1 X90.210 Y90.210 E0.30037
G1 X99.790 Y90.210 E0.30037
G1 X99.790 Y99.790 E0.30037
G0 X99.370 Y99.370 F9000
G1 X90.630 Y99.370 E0.27404 F1200
G1 X90.630 Y90.630 E0.27404
G1 X99.370 Y90.630 E0.27404
G1 X99.370 Y99.370 E0.27404
G1 E-0.8000 F1800
G1 Z8.800 F9000
G0 X99.160 Y91.240 F9000
G1 Z8.400 F9000
G1 E0.8000 F1800
G1 X91.240 Y99.160 E0.35117 F1200
G1 E-0.8000 F1800
G1 Z8.800 F9000
G0 X99.160 Y95.200 F9000
G1 Z8.400 F9000
G1 E0.8000 F1800
G1 X95.200 Y99.160 E0.17558 F1200
G1 E-0.8000 F1800
G1 Z8.800 F9000
G0 X95.601 Y90.840 F9000
G1 Z8.400 F9000
G1 E0.8000 F1800
G1 X90.840 Y95.601 E0.21109 F1200
G1 E-0.8000 F1800
G1 Z8.800 F9000
G0 X91.641 Y90.840 F9000
G1 Z8.400 F9000
G1 E0.8000 F1800
G1 X90.840 Y91.641 E0.03551 F1200
; LAYER 42 Z8.600
G1 Z8.600 F9000
G1 E-0.8000 F1800
G1 Z9.000 F9000
G0 X99.790 Y99.790 F9000
G1 Z8.600 F9000
G1 E0.8000 F1800
G1 X90.210 Y99.790 E0.30037 F1200
G1 X90.210 Y90.210 E0.30037
G1 X99.790 Y90.210 E0.30037
G1 X99.790 Y99.790 E0.30037
G0 X99.370 Y99.370 F9000
G1 X90.630 Y99.370 E0.27404 F1200
G1 X90.630 Y90.630 E0.27404
G1 X99.370 Y90.630 E0.27404
G1 X99.370 Y99.370 E0.27404
G1 E-0.8000 F1800
G1 Z9.000 F9000
G0 X90.840 Y98.359 F9000
G1 Z8.600 F9000
G1 E0.8000 F1800
G1 X91.641 Y99.160 E0.03551 F1200
G1 E-0.8000 F1800
G1 Z9.000 F9000
G0 X90.840 Y94.399 F9000
G1 Z8.600 F9000
G1 E0.8000 F1800
G1 X95.601 Y99.160 E0.21109 F1200
G1 E-0.8000 F1800
G1 Z9.000 F9000
G0 X91.240 Y90.840 F9000
G1 Z8.600 F9000
G1 E0.8000 F1800
G1 X99.160 Y98.760 E0.35117 F1200
G1 E-0.8000 F1800
G1 Z9.000 F9000
G0 X95.200 Y90.840 F9000
G1 Z8.600 F9000
G1 E0.8000 F1800
G1 X99.160 Y94.800 E0.17558 F1200
; LAYER 43 Z8.800
G1 Z8.800 F9000
G1 E-0.8000 F1800
G1 Z9.200 F9000
G0 X99.790 Y99.790 F9000
G1 Z8.800 F9000
G1 E0.8000 F1800
G1 X90.210 Y99.790 E0.30037 F1200
G1 X90.210 Y90.210 E0.30037
G1 X99.790 Y90.210 E0.30037
G1 X99.790 Y99.790 E0.30037
G0 X99.370 Y99.370 F9000
G1 X90.630 Y99.370 E0.27404 F1200
G1 X90.630 Y90.630 E0.27404
G1 X99.370 Y90.630 E0.27404
G1 X99.370 Y99.370 E0.27404
G1 E-0.8000 F1800
G1 Z9.200 F9000
G0 X99.160 Y91.240 F9000
G1 Z8.800 F9000
G1 E0.8000 F1800
G1 X91.240 Y99.160 E0.35117 F1200
G1 E-0.8000 F1800
G1 Z9.200 F9000
G0 X99.160 Y95.200 F9000
G1 Z8.800 F9000
G1 E0.8000 F1800
G1 X95.200 Y99.160 E0.17558 F1200
G1 E-0.8000 F1800
G1 Z9.200 F9000
G0 X95.601 Y90.840 F9000
G1 Z8.800 F9000
G1 E0.8000 F1800
G1 X90.840 Y95.601 E0.21109 F1200
G1 E-0.8000 F1800
G1 Z9.200 F9000
G0 X91.641 Y90.840 F9000
G1 Z8.800 F9000
G1 E0.8000 F1800
G1 X90.840 Y91.641 E0.03551 F1200
; LAYER 44 Z9.000
G1 Z9.000 F9000
G1 E-0.8000 F1800
G1 Z9.400 F9000
G0 X99.790 Y99.790 F9000
G1 Z9.000 F9000
G1 E0.8000 F1800
G1 X90.210 Y99.790 E0.30037 F1200
G1 X90.210 Y90.210 E0.30037
G1 X99.790 Y90.210 E0.30037
G1 X99.790 Y99.790 E0.30037
G0 X99.370 Y99.370 F9000
G1 X90.630 Y99.370 E0.27404 F1200
G1 X90.630 Y90.630 E0.27404
G1 X99.370 Y90.630 E0.27404
G1 X99.370 Y99.370 E0.27404
G1 E-0.8000 F1800
G1 Z9.400 F9000
G0 X90.840 Y98.359 F9000
G1 Z9.000 F9000
G1 E0.8000 F1800
G1 X91.641 Y99.160 E0.03551 F1200
G1 E-0.8000 F1800
G1 Z9.400 F9000
G0 X90.840 Y94.399 F9000
G1 Z9.000 F9000
G1 E0.8000 F1800
G1 X95.601 Y99.160 E0.21109 F1200
G1 E-0.8000 F1800
G1 Z9.400 F9000
G0 X91.240 Y90.840 F9000
G1 Z9.000 F9000
G1 E0.8000 F1800
G1 X99.160 Y98.760 E0.35117 F1200
G1 E-0.8000 F1800
G1 Z9.400 F9000
G0 X95.200 Y90.840 F9000
G1 Z9.000 F9000
G1 E0.8000 F1800
G1 X99.160 Y94.800 E0.17558 F1200
; LAYER 45 Z9.200
G1 Z9.200 F9000
G1 E-0.8000 F1800
G1 Z9.600 F9000
G0 X99.790 Y99.790 F9000
G1 Z9.200 F9000
G1 E0.8000 F1800
G1 X90.210 Y99.790 E0.30037 F1786
G1 X90.210 Y90.210 E0.30037
G1 X99.790 Y90.210 E0.30037
G1 X99.790 Y99.790 E0.30037
G0 X99.370 Y99.370 F9000
G1 X90.630 Y99.370 E0.27404 F1786
G1 X90.630 Y90.630 E0.27404
G1 X99.370 Y90.630 E0.27404
G1 X99.370 Y99.370 E0.27404
G0 X99.160 Y98.566 F9000
G1 X98.566 Y99.160 E0.02634 F1786
G0 X99.160 Y97.972 F9000
G1 X97.972 Y99.160 E0.05268 F1786
G1 E-0.8000 F1800
G1 Z9.600 F9000
G0 X99.160 Y97.378 F9000
G1 Z9.200 F9000
G1 E0.8000 F1800
G1 X97.378 Y99.160 E0.07901 F1786
G1 E-0.8000 F1800
G1 Z9.600 F9000
G0 X99.160 Y96.784 F9000
G1 Z9.200 F9000
G1 E0.8000 F1800
G1 X96.784 Y99.160 E0.10535 F1786
G1 E-0.8000 F1800
G1 Z9.600 F9000
G0 X99.160 Y96.190 F9000
G1 Z9.200 F9000
G1 E0.8000 F1800
G1 X96.190 Y99.160 E0.13169 F1786
G1 E-0.8000 F1800
G1 Z9.600 F9000
G0 X99.160 Y95.596 F9000
G1 Z9.200 F9000
G1 E0.8000 F1800
G1 X95.596 Y99.160 E0.15803 F1786
G1 E-0.8000 F1800
G1 Z9.600 F9000
G0 X99.160 Y95.002 F9000
G1 Z9.200 F9000
G1 E0.8000 F1800
G1 X95.002 Y99.160 E0.18436 F1786
G1 E-0.8000 F1800
G1 Z9.600 F9000
G0 X99.160 Y94.408 F9000
G1 Z9.200 F9000
G1 E0.8000 F1800
G1 X94.408 Y99.160 E0.21070 F1786
G1 E-0.8000 F1800
G1 Z9.600 F9000
G0 X99.160 Y93.814 F9000
G1 Z9.200 F9000
G1 E0.8000 F1800
G1 X93.814 Y99.160 E0.23704 F1786
G1 E-0.8000 F1800
G1 Z9.600 F9000
G0 X99.160 Y93.220 F9000
G1 Z9.200 F9000
G1 E0.8000 F1800
G1 X93.220 Y99.160 E0.26338 F1786
G1 E-0.8000 F1800
G1 Z9.600 F9000
G0 X99.160 Y92.626 F9000
G1 Z9.200 F9000
G1 E0.8000 F1800
G1 X92.626 Y99.160 E0.28971 F1786
G1 E-0.8000 F1800
G1 Z9.600 F9000
G0 X99.160 Y92.032 F9000
G1 Z9.200 F9000
G1 E0.8000 F1800
G1 X92.032 Y99.160 E0.31605 F1786
G1 E-0.8000 F1800
G1 Z9.600 F9000
G0 X99.160 Y91.438 F9000
G1 Z9.200 F9000
G1 E0.8000 F1800
G1 X91.438 Y99.160 E0.34239 F1786
G1 E-0.8000 F1800
G1 Z9.600 F9000
G0 X99.160 Y90.844 F9000
G1 Z9.200 F9000
G1 E0.8000 F1800
G1 X90.844 Y99.160 E0.36873 F1786
G1 E-0.8000 F1800
G1 Z9.600 F9000
G0 X98.570 Y90.840 F9000
G1 Z9.200 F9000
G1 E0.8000 F1800
G1 X90.840 Y98.570 E0.34278 F1786
G1 E-0.8000 F1800
G1 Z9.600 F9000
G0 X97.976 Y90.840 F9000
G1 Z9.200 F9000
G1 E0.8000 F1800
G1 X90.840 Y97.976 E0.31644 F1786
G1 E-0.8000 F1800
G1 Z9.600 F9000
G0 X97.383 Y90.840 F9000
G1 Z9.200 F9000
G1 E0.8000 F1800
G1 X90.840 Y97.383 E0.29011 F1786
G1 E-0.8000 F1800
G1 Z9.600 F9000
G0 X96.789 Y90.840 F9000
G1 Z9.200 F9000
G1 E0.8000 F1800
G1 X90.840 Y96.789 E0.26377 F1786
G1 E-0.8000 F1800
G1 Z9.600 F9000
G0 X96.195 Y90.840 F9000
G1 Z9.200 F9000
G1 E0.8000 F1800
G1 X90.840 Y96.195 E0.23743 F1786
G1 E-0.8000 F1800
G1 Z9.600 F9000
G0 X95.601 Y90.840 F9000
G1 Z9.200 F9000
G1 E0.8000 F1800
G1 X90.840 Y95.601 E0.21109 F1786
G1 E-0.8000 F1800
G1 Z9.600 F9000
G0 X95.007 Y90.840 F9000
G1 Z9.200 F9000
G1 E0.8000 F1800
G1 X90.840 Y95.007 E0.18476 F1786
G1 E-0.8000 F1800
G1 Z9.600 F9000
G0 X94.413 Y90.840 F9000
G1 Z9.200 F9000
G1 E0.8000 F1800
G1 X90.840 Y94.413 E0.15842 F1786
G1 E-0.8000 F1800
G1 Z9.600 F9000
G0 X93.819 Y90.840 F9000
G1 Z9.200 F9000
G1 E0.8000 F1800
G1 X90.840 Y93.819 E0.13208 F1786
G1 E-0.8000 F1800
G1 Z9.600 F9000
G0 X93.225 Y90.840 F9000
G1 Z9.200 F9000
G1 E0.8000 F1800
G1 X90.840 Y93.225 E0.10574 F1786
G1 E-0.8000 F1800
G1 Z9.600 F9000
G0 X92.631 Y90.840 F9000
G1 Z9.200 F9000
G1 E0.8000 F1800
G1 X90.840 Y92.631 E0.07941 F1786
G1 E-0.8000 F1800
G1 Z9.600 F9000
G0 X92.037 Y90.840 F9000
G1 Z9.200 F9000
G1 E0.8000 F1800
G1 X90.840 Y92.037 E0.05307 F1786
G0 X91.443 Y90.840 F9000
G1 X90.840 Y91.443 E0.02673 F1786
G0 X90.849 Y90.840 F9000
G1 X90.840 Y90.849 E0.00039 F1786
; LAYER 46 Z9.400
G1 Z9.400 F9000
G1 E-0.8000 F1800
G1 Z9.800 F9000
G0 X99.790 Y99.790 F9000
G1 Z9.400 F9000
G1 E0.8000 F1800
G1 X90.210 Y99.790 E0.30037 F1786
G1 X90.210 Y90.210 E0.30037
G1 X99.790 Y90.210 E0.30037
G1 X99.790 Y99.790 E0.30037
G0 X99.370 Y99.370 F9000
G1 X90.630 Y99.370 E0.27404 F1786
G1 X90.630 Y90.630 E0.27404
G1 X99.370 Y90.630 E0.27404
G1 X99.370 Y99.370 E0.27404
G1 E-0.8000 F1800
G1 Z9.800 F9000
G0 X98.566 Y90.840 F9000
G1 Z9.400 F9000
G1 E0.8000 F1800
G1 X99.160 Y91.434 E0.02634 F1786
G0 X97.972 Y90.840 F9000
G1 X99.160 Y92.028 E0.05268 F1786
G1 E-0.8000 F1800
G1 Z9.800 F9000
G0 X97.378 Y90.840 F9000
G1 Z9.400 F9000
G1 E0.8000 F1800
G1 X99.160 Y92.622 E0.07901 F1786
G1 E-0.8000 F1800
G1 Z9.800 F9000
G0 X96.784 Y90.840 F9000
G1 Z9.400 F9000
G1 E0.8000 F1800
G1 X99.160 Y93.216 E0.10535 F1786
G1 E-0.8000 F1800
G1 Z9.800 F9000
G0 X96.190 Y90.840 F9000
G1 Z9.400 F9000
G1 E0.8000 F1800
G1 X99.160 Y93.810 E0.13169 F1786
G1 E-0.8000 F1800
G1 Z9.800 F9000
G0 X95.596 Y90.840 F9000
G1 Z9.400 F9000
G1 E0.8000 F1800
G1 X99.160 Y94.404 E0.15803 F1786
G1 E-0.8000 F1800
G1 Z9.800 F9000
G0 X95.002 Y90.840 F9000
G1 Z9.400 F9000
G1 E0.8000 F1800
G1 X99.160 Y94.998 E0.18436 F1786
G1 E-0.8000 F1800
G1 Z9.800 F9000
G0 X94.408 Y90.840 F9000
G1 Z9.400 F9000
G1 E0.8000 F1800
G1 X99.160 Y95.592 E0.21070 F1786
G1 E-0.8000 F1800
G1 Z9.800 F9000
G0 X93.814 Y90.840 F9000
G1 Z9.400 F9000
G1 E0.8000 F1800
G1 X99.160 Y96.186 E0.23704 F1786
G1 E-0.8000 F1800
G1 Z9.800 F9000
G0 X93.220 Y90.840 F9000
G1 Z9.400 F9000
G1 E0.8000 F1800
G1 X99.160 Y96.780 E0.26338 F1786
G1 E-0.8000 F1800
G1 Z9.800 F9000
G0 X92.626 Y90.840 F9000
G1 Z9.400 F9000
G1 E0.8000 F1800
G1 X99.160 Y97.374 E0.28971 F1786
G1 E-0.8000 F1800
G1 Z9.800 F9000
G0 X92.032 Y90.840 F9000
G1 Z9.400 F9000
G1 E0.8000 F1800
G1 X99.160 Y97.968 E0.31605 F1786
G1 E-0.8000 F1800
G1 Z9.800 F9000
G0 X91.438 Y90.840 F9000
G1 Z9.400 F9000
G1 E0.8000 F1800
G1 X99.160 Y98.562 E0.34239 F1786
G1 E-0.8000 F1800
G1 Z9.800 F9000
G0 X90.844 Y90.840 F9000
G1 Z9.400 F9000
G1 E0.8000 F1800
G1 X99.160 Y99.156 E0.36873 F1786
G1 E-0.8000 F1800
G1 Z9.800 F9000
G0 X90.840 Y91.430 F9000
G1 Z9.400 F9000
G1 E0.8000 F1800
G1 X98.570 Y99.160 E0.34278 F1786
G1 E-0.8000 F1800
G1 Z9.800 F9000
G0 X90.840 Y92.024 F9000
G1 Z9.400 F9000
G1 E0.8000 F1800
G1 X97.976 Y99.160 E0.31644 F1786
G1 E-0.8000 F1800
G1 Z9.800 F9000
G0 X90.840 Y92.617 F9000
G1 Z9.400 F9000
G1 E0.8000 F1800
G1 X97.383 Y99.160 E0.29011 F1786
G1 E-0.8000 F1800
G1 Z9.800 F9000
G0 X90.840 Y93.211 F9000
G1 Z9.400 F9000
G1 E0.8000 F1800
G1 X96.789 Y99.160 E0.26377 F1786
G1 E-0.8000 F1800
G1 Z9.800 F9000
G0 X90.840 Y93.805 F9000
G1 Z9.400 F9000
G1 E0.8000 F1800
G1 X96.195 Y99.160 E0.23743 F1786
G1 E-0.8000 F1800
G1 Z9.800 F9000
G0 X90.840 Y94.399 F9000
G1 Z9.400 F9000
G1 E0.8000 F1800
G1 X95.601 Y99.160 E0.21109 F1786
G1 E-0.8000 F1800
G1 Z9.800 F9000
G0 X90.840 Y94.993 F9000
G1 Z9.400 F9000
G1 E0.8000 F1800
G1 X95.007 Y99.160 E0.18476 F1786
G1 E-0.8000 F1800
G1 Z9.800 F9000
G0 X90.840 Y95.587 F9000
G1 Z9.400 F9000
G1 E0.8000 F1800
G1 X94.413 Y99.160 E0.15842 F1786
G1 E-0.8000 F1800
G1 Z9.800 F9000
G0 X90.840 Y96.181 F9000
G1 Z9.400 F9000
G1 E0.8000 F1800
G1 X93.819 Y99.160 E0.13208 F1786
G1 E-0.8000 F1800
G1 Z9.800 F9000
G0 X90.840 Y96.775 F9000
G1 Z9.400 F9000
G1 E0.8000 F1800
G1 X93.225 Y99.160 E0.10574 F1786
G1 E-0.8000 F1800
G1 Z9.800 F9000
G0 X90.840 Y97.369 F9000
G1 Z9.400 F9000
G1 E0.8000 F1800
G1 X92.631 Y99.160 E0.07941 F1786
G1 E-0.8000 F1800
G1 Z9.800 F9000
G0 X90.840 Y97.963 F9000
G1 Z9.400 F9000
G1 E0.8000 F1800
G1 X92.037 Y99.160 E0.05307 F1786
G0 X90.840 Y98.557 F9000
G1 X91.443 Y99.160 E0.02673 F1786
G0 X90.840 Y99.151 F9000
G1 X90.849 Y99.160 E0.00039 F1786
; LAYER 47 Z9.600
G1 Z9.600 F9000
G1 E-0.8000 F1800
G1 Z10.000 F9000
G0 X99.790 Y99.790 F9000
G1 Z9.600 F9000
G1 E0.8000 F1800
G1 X90.210 Y99.790 E0.30037 F1786
G1 X90.210 Y90.210 E0.30037
G1 X99.790 Y90.210 E0.30037
G1 X99.790 Y99.790 E0.30037
G0 X99.370 Y99.370 F9000
G1 X90.630 Y99.370 E0.27404 F1786
G1 X90.630 Y90.630 E0.27404
G1 X99.370 Y90.630 E0.27404
G1 X99.370 Y99.370 E0.27404
G0 X99.160 Y98.566 F9000
G1 X98.566 Y99.160 E0.02634 F1786
G0 X99.160 Y97.972 F9000
G1 X97.972 Y99.160 E0.05268 F1786
G1 E-0.8000 F1800
G1 Z10.000 F9000
G0 X99.160 Y97.378 F9000
G1 Z9.600 F9000
G1 E0.8000 F1800
G1 X97.378 Y99.160 E0.07901 F1786
G1 E-0.8000 F1800
G1 Z10.000 F9000
G0 X99.160 Y96.784 F9000
G1 Z9.600 F9000
G1 E0.8000 F1800
G1 X96.784 Y99.160 E0.10535 F1786
G1 E-0.8000 F1800
G1 Z10.000 F9000
G0 X99.160 Y96.190 F9000
G1 Z9.600 F9000
G1 E0.8000 F1800
G1 X96.190 Y99.160 E0.13169 F1786
G1 E-0.8000 F1800
G1 Z10.000 F9000
G0 X99.160 Y95.596 F9000
G1 Z9.600 F9000
G1 E0.8000 F1800
G1 X95.596 Y99.160 E0.15803 F1786
G1 E-0.8000 F1800
G1 Z10.000 F9000
G0 X99.160 Y95.002 F9000
G1 Z9.600 F9000
G1 E0.8000 F1800
G1 X95.002 Y99.160 E0.18436 F1786
G1 E-0.8000 F1800
G1 Z10.000 F9000
G0 X99.160 Y94.408 F9000
G1 Z9.600 F9000
G1 E0.8000 F1800
G1 X94.408 Y99.160 E0.21070 F1786
G1 E-0.8000 F1800
G1 Z10.000 F9000
G0 X99.160 Y93.814 F9000
G1 Z9.600 F9000
G1 E0.8000 F1800
G1 X93.814 Y99.160 E0.23704 F1786
G1 E-0.8000 F1800
G1 Z10.000 F9000
G0 X99.160 Y93.220 F9000
G1 Z9.600 F9000
G1 E0.8000 F1800
G1 X93.220 Y99.160 E0.26338 F1786
G1 E-0.8000 F1800
G1 Z10.000 F9000
G0 X99.160 Y92.626 F9000
G1 Z9.600 F9000
G1 E0.8000 F1800
G1 X92.626 Y99.160 E0.28971 F1786
G1 E-0.8000 F1800
G1 Z10.000 F9000
G0 X99.160 Y92.032 F9000
G1 Z9.600 F9000
G1 E0.8000 F1800
G1 X92.032 Y99.160 E0.31605 F1786
G1 E-0.8000 F1800
G1 Z10.000 F9000
G0 X99.160 Y91.438 F9000
G1 Z9.600 F9000
G1 E0.8000 F1800
G1 X91.438 Y99.160 E0.34239 F1786
G1 E-0.8000 F1800
G1 Z10.000 F9000
G0 X99.160 Y90.844 F9000
G1 Z9.600 F9000
G1 E0.8000 F1800
G1 X90.844 Y99.160 E0.36873 F1786
G1 E-0.8000 F1800
G1 Z10.000 F9000
G0 X98.570 Y90.840 F9000
G1 Z9.600 F9000
G1 E0.8000 F1800
G1 X90.840 Y98.570 E0.34278 F1786
G1 E-0.8000 F1800
G1 Z10.000 F9000
G0 X97.976 Y90.840 F9000
G1 Z9.600 F9000
G1 E0.8000 F1800
G1 X90.840 Y97.976 E0.31644 F1786
G1 E-0.8000 F1800
G1 Z10.000 F9000
G0 X97.383 Y90.840 F9000
G1 Z9.600 F9000
G1 E0.8000 F1800
G1 X90.840 Y97.383 E0.29011 F1786
G1 E-0.8000 F1800
G1 Z10.000 F9000
G0 X96.789 Y90.840 F9000
G1 Z9.600 F9000
G1 E0.8000 F1800
G1 X90.840 Y96.789 E0.26377 F1786
G1 E-0.8000 F1800
G1 Z10.000 F9000
G0 X96.195 Y90.840 F9000
G1 Z9.600 F9000
G1 E0.8000 F1800
G1 X90.840 Y96.195 E0.23743 F1786
G1 E-0.8000 F1800
G1 Z10.000 F9000
G0 X95.601 Y90.840 F9000
G1 Z9.600 F9000
G1 E0.8000 F1800
G1 X90.840 Y95.601 E0.21109 F1786
G1 E-0.8000 F1800
G1 Z10.000 F9000
G0 X95.007 Y90.840 F9000
G1 Z9.600 F9000
G1 E0.8000 F1800
G1 X90.840 Y95.007 E0.18476 F1786
G1 E-0.8000 F1800
G1 Z10.000 F9000
G0 X94.413 Y90.840 F9000
G1 Z9.600 F9000
G1 E0.8000 F1800
G1 X90.840 Y94.413 E0.15842 F1786
G1 E-0.8000 F1800
G1 Z10.000 F9000
G0 X93.819 Y90.840 F9000
G1 Z9.600 F9000
G1 E0.8000 F1800
G1 X90.840 Y93.819 E0.13208 F1786
G1 E-0.8000 F1800
G1 Z10.000 F9000
G0 X93.225 Y90.840 F9000
G1 Z9.600 F9000
G1 E0.8000 F1800
G1 X90.840 Y93.225 E0.10574 F1786
G1 E-0.8000 F1800
G1 Z10.000 F9000
G0 X92.631 Y90.840 F9000
G1 Z9.600 F9000
G1 E0.8000 F1800
G1 X90.840 Y92.631 E0.07941 F1786
G1 E-0.8000 F1800
G1 Z10.000 F9000
G0 X92.037 Y90.840 F9000
G1 Z9.600 F9000
G1 E0.8000 F1800
G1 X90.840 Y92.037 E0.05307 F1786
G0 X91.443 Y90.840 F9000
G1 X90.840 Y91.443 E0.02673 F1786
G0 X90.849 Y90.840 F9000
G1 X90.840 Y90.849 E0.00039 F1786
; LAYER 48 Z9.800
G1 Z9.800 F9000
G1 E-0.8000 F1800
G1 Z10.200 F9000
G0 X99.790 Y99.790 F9000
G1 Z9.800 F9000
G1 E0.8000 F1800
G1 X90.210 Y99.790 E0.30037 F1786
G1 X90.210 Y90.210 E0.30037
G1 X99.790 Y90.210 E0.30037
G1 X99.790 Y99.790 E0.30037
G0 X99.370 Y99.370 F9000
G1 X90.630 Y99.370 E0.27404 F1786
G1 X90.630 Y90.630 E0.27404
G1 X99.370 Y90.630 E0.27404
G1 X99.370 Y99.370 E0.27404
G1 E-0.8000 F1800
G1 Z10.200 F9000
G0 X98.566 Y90.840 F9000
G1 Z9.800 F9000
G1 E0.8000 F1800
G1 X99.160 Y91.434 E0.02634 F1786
G0 X97.972 Y90.840 F9000
G1 X99.160 Y92.028 E0.05268 F1786
G1 E-0.8000 F1800
G1 Z10.200 F9000
G0 X97.378 Y90.840 F9000
G1 Z9.800 F9000
G1 E0.8000 F1800
G1 X99.160 Y92.622 E0.07901 F1786
G1 E-0.8000 F1800
G1 Z10.200 F9000
G0 X96.784 Y90.840 F9000
G1 Z9.800 F9000
G1 E0.8000 F1800
G1 X99.160 Y93.216 E0.10535 F1786
G1 E-0.8000 F1800
G1 Z10.200 F9000
G0 X96.190 Y90.840 F9000
G1 Z9.800 F9000
G1 E0.8000 F1800
G1 X99.160 Y93.810 E0.13169 F1786
G1 E-0.8000 F1800
G1 Z10.200 F9000
G0 X95.596 Y90.840 F9000
G1 Z9.800 F9000
G1 E0.8000 F1800
G1 X99.160 Y94.404 E0.15803 F1786
G1 E-0.8000 F1800
G1 Z10.200 F9000
G0 X95.002 Y90.840 F9000
G1 Z9.800 F9000
G1 E0.8000 F1800
G1 X99.160 Y94.998 E0.18436 F1786
G1 E-0.8000 F1800
G1 Z10.200 F9000
G0 X94.408 Y90.840 F9000
G1 Z9.800 F9000
G1 E0.8000 F1800
G1 X99.160 Y95.592 E0.21070 F1786
G1 E-0.8000 F1800
G1 Z10.200 F9000
G0 X93.814 Y90.840 F9000
G1 Z9.800 F9000
G1 E0.8000 F1800
G1 X99.160 Y96.186 E0.23704 F1786
G1 E-0.8000 F1800
G1 Z10.200 F9000
G0 X93.220 Y90.840 F9000
G1 Z9.800 F9000
G1 E0.8000 F1800
G1 X99.160 Y96.780 E0.26338 F1786
G1 E-0.8000 F1800
G1 Z10.200 F9000
G0 X92.626 Y90.840 F9000
G1 Z9.800 F9000
G1 E0.8000 F1800
G1 X99.160 Y97.374 E0.28971 F1786
G1 E-0.8000 F1800
G1 Z10.200 F9000
G0 X92.032 Y90.840 F9000
G1 Z9.800 F9000
G1 E0.8000 F1800
G1 X99.160 Y97.968 E0.31605 F1786
G1 E-0.8000 F1800
G1 Z10.200 F9000
G0 X91.438 Y90.840 F9000
G1 Z9.800 F9000
G1 E0.8000 F1800
G1 X99.160 Y98.562 E0.34239 F1786
G1 E-0.8000 F1800
G1 Z10.200 F9000
G0 X90.844 Y90.840 F9000
G1 Z9.800 F9000
G1 E0.8000 F1800
G1 X99.160 Y99.156 E0.36873 F1786
G1 E-0.8000 F1800
G1 Z10.200 F9000
G0 X90.840 Y91.430 F9000
G1 Z9.800 F9000
G1 E0.8000 F1800
G1 X98.570 Y99.160 E0.34278 F1786
G1 E-0.8000 F1800
G1 Z10.200 F9000
G0 X90.840 Y92.024 F9000
G1 Z9.800 F9000
G1 E0.8000 F1800
G1 X97.976 Y99.160 E0.31644 F1786
G1 E-0.8000 F1800
G1 Z10.200 F9000
G0 X90.840 Y92.617 F9000
G1 Z9.800 F9000
G1 E0.8000 F1800
G1 X97.383 Y99.160 E0.29011 F1786
G1 E-0.8000 F1800
G1 Z10.200 F9000
G0 X90.840 Y93.211 F9000
G1 Z9.800 F9000
G1 E0.8000 F1800
G1 X96.789 Y99.160 E0.26377 F1786
G1 E-0.8000 F1800
G1 Z10.200 F9000
G0 X90.840 Y93.805 F9000
G1 Z9.800 F9000
G1 E0.8000 F1800
G1 X96.195 Y99.160 E0.23743 F1786
G1 E-0.8000 F1800
G1 Z10.200 F9000
G0 X90.840 Y94.399 F9000
G1 Z9.800 F9000
G1 E0.8000 F1800
G1 X95.601 Y99.160 E0.21109 F1786
G1 E-0.8000 F1800
G1 Z10.200 F9000
G0 X90.840 Y94.993 F9000
G1 Z9.800 F9000
G1 E0.8000 F1800
G1 X95.007 Y99.160 E0.18476 F1786
G1 E-0.8000 F1800
G1 Z10.200 F9000
G0 X90.840 Y95.587 F9000
G1 Z9.800 F9000
G1 E0.8000 F1800
G1 X94.413 Y99.160 E0.15842 F1786
G1 E-0.8000 F1800
G1 Z10.200 F9000
G0 X90.840 Y96.181 F9000
G1 Z9.800 F9000
G1 E0.8000 F1800
G1 X93.819 Y99.160 E0.13208 F1786
G1 E-0.8000 F1800
G1 Z10.200 F9000
G0 X90.840 Y96.775 F9000
G1 Z9.800 F9000
G1 E0.8000 F1800
G1 X93.225 Y99.160 E0.10574 F1786
G1 E-0.8000 F1800
G1 Z10.200 F9000
G0 X90.840 Y97.369 F9000
G1 Z9.800 F9000
G1 E0.8000 F1800
G1 X92.631 Y99.160 E0.07941 F1786
G1 E-0.8000 F1800
G1 Z10.200 F9000
G0 X90.840 Y97.963 F9000
G1 Z9.800 F9000
G1 E0.8000 F1800
G1 X92.037 Y99.160 E0.05307 F1786
G0 X90.840 Y98.557 F9000
G1 X91.443 Y99.160 E0.02673 F1786
G0 X90.840 Y99.151 F9000
G1 X90.849 Y99.160 E0.00039 F1786
; OrcaSlicer RE mini-kernel (Track C stage 6) — NOT full libslic3r
; params: lh=0.200 flh=0.200 lw=0.420 walls=2 infill=0.15@45deg top=4 bottom=3
; skirt=1@2.0mm brim=0.0mm retract=0.80mm@30mm/s zhop=0.40mm
; support=0 angle=30 density=0.15 topz=0.20 xy=0.35 iface=2  raft=0  bed=120x120 off=60.0,60.0
; pattern=rectilinear fan=100% closeFan=1 fullFan=3 slowT=8s arc=0 seam=back spiral=0
; speeds(mm/s): print=60 first=20 travel=150  temps: nozzle=210 bed=60
; scarf=none@10mm support_style=grid bridge=25mm/s PA=0@0.020
; ironing=none@0.10mm flow=10% spd=30  reduce_crossing_wall=0  PE_slope=0.0  extruders=1
M140 S60
M104 S210
M190 S60
M109 S210
G21 ; mm
G90 ; absolute XYZ
M83 ; relative E
; (no G28 homing — mini-kernel preamble)
G92 E0
; end
M104 S0
M140 S0
M107
; filament used: 183.05 mm
