; HEADER_BLOCK_START
; BambuStudio 02.08.02.61
; model printing time: 1h 39m 36s; total estimated time: 1h 46m 51s
; total layer number: 50
; total filament length [mm] : 5655.05,3717.45
; total filament volume [cm^3] : 13601.99,8941.51
; total filament weight [g] : 17.14,11.27
; filament_density: 1.26,1.26
; filament_diameter: 1.75,1.75
; max_z_height: 10.00
; filament: 1,2
; support_material_on_wipe_tower: 0
; HEADER_BLOCK_END
; tau-fixture: two-colour-cubes.gcode, an excerpt of real Bambu Studio output for @taucad/slicer tests.
; tau-fixture: Bambu Studio 02.08.02.61 sliced two-colour-cubes.glb (a red and a blue 10 mm cube, 10 mm apart)
; tau-fixture: as one assembly through sliceWithBambuStudio: part 1 with filament 1 (#FF0000), part 2 with
; tau-fixture: filament 2 (#0000FF); Bambu Lab X1 Carbon 0.4 nozzle, 0.20mm Standard @BBL X1C, Bambu PLA Basic @BBL X1C twice,
; tau-fixture: textured PEI plate. Kept: the header block, the configuration lines below, the executable
; tau-fixture: block through the second layer, and its end. Removed: the other configuration lines, layers 3
; tau-fixture: onward, and every expansion of the printer's and filaments' custom G-code, keeping in place the
; tau-fixture: filament selections (M620 S<n>A, T<n>, M621 S<n>A) and machine state (units, modes, homing,
; tau-fixture: temperatures) inside them. Each removal leaves a tau-fixture line.
; CONFIG_BLOCK_START
; curr_bed_type = Textured PEI Plate
; default_filament_colour = ""
; enable_prime_tower = 1
; filament_colour = #FF0000;#0000FF
; filament_diameter = 1.75,1.75
; filament_settings_id = "Bambu PLA Basic @BBL X1C";"Bambu PLA Basic @BBL X1C"
; filament_type = PLA;PLA
; initial_layer_print_height = 0.2
; layer_height = 0.2
; nozzle_diameter = 0.4
; nozzle_temperature = 220,220
; prime_tower_width = 35
; print_settings_id = 0.20mm Standard @BBL X1C
; printable_area = 0x0,256x0,256x256,0x256
; printable_height = 250
; printer_model = Bambu Lab X1 Carbon
; printer_settings_id = Bambu Lab X1 Carbon 0.4 nozzle
; wipe_tower_x = 165
; wipe_tower_y = 217.697
; CONFIG_BLOCK_END

; EXECUTABLE_BLOCK_START
M73 P0 R106
M201 X20000 Y20000 Z500 E5000
M203 X500 Y500 Z20 E30
M204 P20000 R5000 T20000
M205 X9.00 Y9.00 Z3.00 E2.50
M106 S0
M106 P2 S0
; FEATURE: Custom
; tau-fixture: removed 633 lines of the machine start sequence; its filament selections and machine state follow
M104 S75
G91
G90
G90
M140 S55
M190 S55
M104 S220
G91
G90
G28 X
M620 S0A
    M109 S220
    T0
M621 S0A
M109 S250
G92 E0
M104 S220
G92 E0
G92 E0
M109 S200
G92 E0
M109 S200
G28 Z P0 T300
G92 E0
M104 S140
M109 S140
G28 Z P0
    G28
M104 S220
G28 X
G90
G90
M83
T1000
M109 S220
    T1000
    T1000
    M83
M104 S140
T1100
    T1100
    M104 S220
    T1100
    T1000
    T1000
    M109 S220
M109 S220
G90
M83
T1000
M109 S220
; MACHINE_START_GCODE_END
; tau-fixture: removed 4 lines of the filament start sequence
;VT0 H-1
G90
G21
M83 ; use relative distances for extrusion
M981 S1 P20000 ;open spaghetti detector
M204 S10000
G1 Z.6 F30000
; CHANGE_LAYER
; Z_HEIGHT: 0.2
; LAYER_HEIGHT: 0.2
G1 E-.8 F1800
; tau-fixture: removed 4 lines of the layer change sequence
M106 S0
M106 P2 S0
; OBJECT_ID: 74
G1 X122.143 Y130.143 F30000
M204 S6000
G1 Z1
G1 Z.2
G1 E.8 F1800
; FEATURE: Inner wall
; LINE_WIDTH: 0.5
; LAYER_HEIGHT: 0.2
G1 F3000
M204 S500
G1 X113.857 Y130.143 E.30862
G1 X113.857 Y121.857 E.30862
G1 X122.143 Y121.857 E.30862
G1 X122.143 Y130.083 E.30638
M204 S6000
G1 X122.6 Y130.6 F30000
; FEATURE: Outer wall
G1 F3000
M204 S500
G1 X113.4 Y130.6 E.34267
G1 X113.4 Y121.4 E.34267
G1 X122.6 Y121.4 E.34267
G1 X122.6 Y130.54 E.34043
; WIPE_START
G1 X120.6 Y130.553 E-.76
; WIPE_END
G1 E-.04 F1800
M204 S6000
G1 X120.967 Y122.929 Z.6 F30000
G1 X121.01 Y122.04 Z.6
G1 Z.2
G1 E.8 F1800
; FEATURE: Bottom surface
; LINE_WIDTH: 0.51231
G1 F6300
M204 S500
G1 X121.754 Y122.784 E.04027
G1 X121.754 Y123.448 E.02539
G1 X120.552 Y122.246 E.06505
G1 X119.888 Y122.246 E.02539
G1 X121.754 Y124.112 E.10096
G1 X121.754 Y124.776 E.02539
G1 X119.224 Y122.246 E.13686
G1 X118.56 Y122.246 E.02539
G1 X121.754 Y125.44 E.17277
G1 X121.754 Y126.103 E.02539
G1 X117.897 Y122.246 E.20868
G1 X117.233 Y122.246 E.02539
G1 X121.754 Y126.767 E.24459
G1 X121.754 Y127.431 E.02539
G1 X116.569 Y122.246 E.28049
G1 X115.905 Y122.246 E.02539
G1 X121.754 Y128.095 E.3164
G1 X121.754 Y128.759 E.02539
G1 X115.241 Y122.246 E.35231
G1 X114.578 Y122.246 E.02539
G1 X121.754 Y129.422 E.38822
G1 X121.754 Y129.754 E.0127
G1 X121.423 Y129.754 E.01269
G1 X114.246 Y122.577 E.38822
G1 X114.246 Y123.241 E.02539
G1 X120.759 Y129.754 E.35231
G1 X120.095 Y129.754 E.02539
M73 P6 R99
G1 X114.246 Y123.905 E.31641
G1 X114.246 Y124.569 E.02539
G1 X119.431 Y129.754 E.2805
G1 X118.767 Y129.754 E.02539
G1 X114.246 Y125.233 E.24459
G1 X114.246 Y125.897 E.02539
G1 X118.103 Y129.754 E.20868
G1 X117.44 Y129.754 E.02539
G1 X114.246 Y126.56 E.17278
G1 X114.246 Y127.224 E.02539
G1 X116.776 Y129.754 E.13687
G1 X116.112 Y129.754 E.02539
G1 X114.246 Y127.888 E.10096
G1 X114.246 Y128.552 E.02539
G1 X115.448 Y129.754 E.06505
G1 X114.784 Y129.754 E.02539
G1 X114.04 Y129.01 E.04027
; WIPE_START
M204 S500
G1 X114.784 Y129.754 E-.40008
G1 X115.448 Y129.754 E-.25225
G1 X115.248 Y129.554 E-.10767
; WIPE_END
G1 E-.04 F1800
M204 S6000
G17
G3 Z.6 I-1.016 J.67 P1  F30000
G1 X183.51 Y232.996 Z.6
G1 Z.2
G1 E.8 F1800
; LAYER_HEIGHT: 0.200000
; FEATURE: Prime tower
; LINE_WIDTH: 0.500000
; WIPE_TOWER_START
M204 S6000
G1  X184.010 Y233.995  
M204 S500
G3  X181.539 Y236.031   I-4.367 J-2.786 E0.1237 F3000
G3  X178.919 Y234.786   I0.023 J-3.430 E0.1138
G2  X170.702 Y235.865   I-3.389 J6.021 E0.3378
G3  X168.397 Y235.447   I-0.859 J-1.828 E0.0950
G1  X167.010 Y233.995   E0.0763
G3  X165.076 Y231.686   I3.844 J-5.182 E0.1156
G3  X166.252 Y229.068   I2.922 J-0.261 E0.1140
G2  X165.694 Y222.020   I-5.282 J-3.127 E0.2863
G3  X165.668 Y219.150   I1.175 J-1.446 E0.1246
G1 E-0.8000 F1800
M204 S6000
G1  X167.396 Y217.341   F600
G1 E0.8000 F1800
M204 S500
G3  X170.105 Y215.697   I2.837 J1.618 E0.1258 F3000
G3  X172.596 Y217.234   I-3.918 J9.136 E0.1117
G2  X175.510 Y217.745   I2.399 J-5.110 E0.1138
G1  X176.157  E0.0246
G2  X180.318 Y215.876   I-0.216 J-6.048 E0.1778
G3  X182.623 Y216.294   I0.859 J1.828 E0.0950
G1  X184.010 Y217.745   E0.0763
G3  X185.944 Y220.055   I-3.844 J5.182 E0.1156
G3  X184.768 Y222.673   I-2.922 J0.261 E0.1140
G2  X185.326 Y229.721   I5.282 J3.127 E0.2863
G3  X185.516 Y232.421   I-1.145 J1.437 E0.1156
G1  X184.010 Y233.995   E0.0828
M204 S6000
G1  X185.852 Y232.729  
M204 S500
G3  X182.667 Y236.018   I-19.500 J-15.697 E0.1743
G3  X178.814 Y235.268   I-1.517 J-2.475 E0.1639
G2  X170.900 Y236.277   I-3.297 J5.671 E0.3259
G3  X168.073 Y235.768   I-1.056 J-2.246 E0.1164
G3  X164.948 Y232.460   I16.429 J-18.644 E0.1732
G3  X165.786 Y228.932   I2.237 J-1.332 E0.1525
G2  X165.375 Y222.348   I-4.822 J-3.003 E0.2674
G3  X165.168 Y219.012   I1.461 J-1.766 E0.1424
G3  X168.353 Y215.723   I19.495 J15.692 E0.1743
G3  X172.206 Y216.473   I1.517 J2.475 E0.1639
G2  X180.120 Y215.464   I3.297 J-5.671 E0.3259
G3  X181.430 Y215.234   I1.072 J2.258 E0.0512
G3  X182.947 Y215.973   I-0.260 J2.463 E0.0654
G3  X186.072 Y219.281   I-16.423 J18.639 E0.1732
G3  X185.234 Y222.809   I-2.237 J1.332 E0.1525
G2  X185.645 Y229.393   I4.823 J3.003 E0.2674
G3  X185.852 Y232.729   I-1.461 J1.766 E0.1424
M204 S6000
G1  X186.189 Y233.038  
M204 S500
G3  X182.944 Y236.382   I-19.732 J-15.902 E0.1773
G3  X178.552 Y235.641   I-1.818 J-2.609 E0.1875
G2  X171.300 Y236.583   I-3.024 J5.110 E0.2994
G3  X167.749 Y236.091   I-1.461 J-2.522 E0.1468
G3  X164.572 Y232.719   I16.640 J-18.863 E0.1763
G3  X165.500 Y228.546   I2.800 J-1.567 E0.1778
G2  X165.056 Y222.675   I-4.589 J-2.605 E0.2374
G3  X164.831 Y218.702   I1.778 J-2.094 E0.1692
G3  X168.076 Y215.359   I19.728 J15.898 E0.1773
G3  X172.468 Y216.100   I1.818 J2.609 E0.1875
G2  X179.720 Y215.158   I3.024 J-5.110 E0.2994
G3  X181.476 Y214.779   I1.504 J2.704 E0.0693
G3  X183.271 Y215.650   I-0.308 J2.921 E0.0774
G3  X186.448 Y219.021   I-16.635 J18.859 E0.1763
G3  X185.520 Y223.195   I-2.800 J1.567 E0.1778
G2  X185.964 Y229.065   I4.589 J2.605 E0.2374
G3  X186.189 Y233.038   I-1.778 J2.094 E0.1692
M204 S6000
G1  X186.526 Y233.348  
M204 S500
G3  X183.221 Y236.746   I-19.993 J-16.134 E0.1804
G3  X178.176 Y235.939   I-2.072 J-3.220 E0.2126
G2  X171.531 Y236.977   I-2.644 J4.863 E0.2747
G3  X167.424 Y236.413   I-1.691 J-2.918 E0.1696
G3  X164.196 Y232.980   I16.873 J-19.104 E0.1794
G3  X165.124 Y228.285   I2.965 J-1.852 E0.2003
G2  X164.595 Y222.867   I-4.132 J-2.331 E0.2204
G3  X164.494 Y218.393   I2.256 J-2.289 E0.1882
G3  X167.799 Y214.994   I19.990 J16.131 E0.1804
G3  X172.844 Y215.801   I2.072 J3.220 E0.2126
G2  X179.489 Y214.764   I2.644 J-4.863 E0.2747
G3  X181.522 Y214.324   I1.741 J3.129 E0.0802
G3  X183.596 Y215.327   I-0.356 J3.379 E0.0893
G3  X186.824 Y218.760   I-16.873 J19.103 E0.1794
G3  X185.896 Y223.454   I-2.965 J1.852 E0.2003
G2  X186.425 Y228.874   I4.132 J2.331 E0.2204
G3  X186.526 Y233.348   I-2.256 J2.289 E0.1882
M204 S6000
G1  X186.862 Y233.658  
M204 S500
G3  X183.498 Y237.111   I-20.272 J-16.383 E0.1835
G3  X177.928 Y236.324   I-2.363 J-3.380 E0.2353
G2  X171.761 Y237.372   I-2.402 J4.533 E0.2557
G3  X167.100 Y236.736   I-1.921 J-3.314 E0.1925
G3  X163.819 Y233.240   I17.139 J-19.375 E0.1825
G3  X164.803 Y227.943   I3.357 J-2.116 E0.2251
G2  X164.418 Y223.331   I-3.977 J-1.991 E0.1851
G3  X164.158 Y218.083   I2.414 J-2.749 E0.2227
G3  X167.522 Y214.630   I20.269 J16.381 E0.1835
G3  X173.092 Y215.417   I2.363 J3.380 E0.2353
G2  X179.259 Y214.368   I2.402 J-4.533 E0.2557
G3  X181.568 Y213.868   I1.978 J3.554 E0.0911
G3  X183.920 Y215.005   I-0.404 J3.837 E0.1013
G3  X187.201 Y218.501   I-17.135 J19.371 E0.1825
G3  X186.217 Y223.798   I-3.357 J2.116 E0.2251
G2  X186.602 Y228.410   I3.977 J1.991 E0.1851
G3  X186.862 Y233.658   I-2.414 J2.749 E0.2227
M204 S6000
G1  X187.199 Y233.966  
M204 S500
G3  X183.776 Y237.475   I-20.563 J-16.645 E0.1865
G3  X177.594 Y236.654   I-2.646 J-3.760 E0.2604
G2  X171.991 Y237.768   I-2.033 J4.426 E0.2320
G3  X166.776 Y237.059   I-2.150 J-3.710 E0.2153
G3  X163.443 Y233.501   I17.413 J-19.654 E0.1855
G3  X164.458 Y227.630   I3.803 J-2.366 E0.2477
G2  X164.098 Y223.658   I-3.727 J-1.665 E0.1584
G3  X163.821 Y217.775   I2.733 J-3.077 E0.2495
G3  X167.244 Y214.266   I20.564 J16.646 E0.1865
G3  X173.426 Y215.087   I2.646 J3.760 E0.2604
G2  X179.029 Y213.973   I2.033 J-4.426 E0.2320
G3  X181.614 Y213.413   I2.214 J3.980 E0.1020
G3  X184.244 Y214.682   I-0.453 J4.295 E0.1132
G3  X187.577 Y218.240   I-17.412 J19.653 E0.1855
G3  X186.562 Y224.111   I-3.803 J2.366 E0.2477
G2  X186.922 Y228.083   I3.727 J1.665 E0.1584
G3  X187.199 Y233.966   I-2.732 J3.077 E0.2495
M204 S6000
G1  X187.535 Y234.277  
M204 S500
G3  X184.053 Y237.839   I-20.864 J-16.915 E0.1896
G3  X177.287 Y237.007   I-2.916 J-4.210 E0.2835
G2  X172.221 Y238.163   I-1.680 J4.315 E0.2097
G3  X166.452 Y237.380   I-2.380 J-4.107 E0.2382
G3  X163.067 Y233.762   I17.697 J-19.942 E0.1886
G3  X164.092 Y227.348   I4.149 J-2.626 E0.2697
G2  X163.779 Y223.984   I-3.362 J-1.384 E0.1335
G3  X163.485 Y217.464   I3.051 J-3.404 E0.2762
G3  X166.967 Y213.902   I20.865 J16.916 E0.1896
G3  X173.733 Y214.734   I2.916 J4.210 E0.2835
G2  X178.799 Y213.577   I1.680 J-4.315 E0.2097
G3  X181.661 Y212.958   I2.451 J4.405 E0.1129
G3  X184.568 Y214.361   I-0.501 J4.754 E0.1251
G3  X187.953 Y217.979   I-17.695 J19.941 E0.1886
G3  X186.928 Y224.393   I-4.149 J2.626 E0.2697
G2  X187.241 Y227.757   I3.362 J1.384 E0.1335
G3  X187.535 Y234.277   I-3.051 J3.404 E0.2762
M204 S6000
G1  X187.872 Y234.585  
M204 S500
G3  X184.330 Y238.202   I-21.171 J-17.192 E0.1927
G3  X177.010 Y237.378   I-3.194 J-4.551 E0.3060
G2  X172.795 Y238.339   I-1.425 J3.471 E0.1751
G3  X166.128 Y237.702   I-2.950 J-4.334 E0.2761
G3  X162.691 Y234.022   I17.990 J-20.239 E0.1917
G3  X163.707 Y227.096   I4.419 J-2.889 E0.2908
G2  X163.306 Y224.165   I-2.880 J-1.099 E0.1173
G3  X163.148 Y217.156   I3.562 J-3.587 E0.2944
G3  X166.690 Y213.538   I21.172 J17.193 E0.1927
G3  X174.010 Y214.363   I3.194 J4.551 E0.3060
G2  X178.225 Y213.402   I1.424 J-3.471 E0.1751
G3  X181.707 Y212.503   I2.974 J4.334 E0.1395
G3  X184.892 Y214.038   I-0.549 J5.212 E0.1371
G3  X188.329 Y217.719   I-17.989 J20.239 E0.1917
G3  X187.296 Y224.684   I-4.472 J2.895 E0.2923
G2  X187.560 Y227.430   I3.113 J1.086 E0.1082
G3  X187.872 Y234.585   I-3.369 J3.732 E0.3030
; WIPE_TOWER_END
; LAYER_HEIGHT: 0.200000
; FEATURE: Prime tower
; LINE_WIDTH: 0.500000
;--------------------
; CP TOOLCHANGE START
; toolchange #1
; material : PLA -> PLA
;--------------------
M220 B
M220 S100
; WIPE_TOWER_START
G1 E-2 F1800
G17
G3 Z.6 I1.217 J0 P1  F5400
; tau-fixture: removed 131 lines of the filament end and change sequences; its filament selections and machine state follow
M620 S1A
M104 S220
T1
G92 E0
G92 E0
M83
M109 S240
G91
G90
M83
M109 S220
G92 E0
M621 S1A
M106 S0
M106 P2 S0
G1 X162.97 Y241.263 F30000
G1 Z.2
G1 X159.799 Y241.263 Z.6
G1 X159.799 Y218.246

; tau-fixture: removed 4 lines of the filament start sequence
G1 X167.51 Y218.246
G1 Z.2
G1 E2 F1800

G4 S0
; CP_TOOLCHANGE_WIPE CT0 FL1
; LINE_WIDTH: 0.500000
M204 S500
G1  X170.510 Y218.245  E0.1140 F990
G1 E-0.8000 F1800
M204 S6000
G1  X166.010  F600
G1  X170.510  F240
G1 E0.8000 F1800
M204 S500
G1  X183.510  E0.4941 F990
G1  Y218.745  E0.0190
G1  X167.510  E0.6081 F1125
G1  Y219.245  E0.0190
G1  X183.510  E0.6081 F1374
G1  Y219.745  E0.0190
G1  X167.510  E0.6081 F2625
G1  Y220.245  E0.0190
G1  X183.510  E0.6081 F2675
G1  Y220.745  E0.0190
G1  X167.510  E0.6081
G1  Y221.245  E0.0190
G1  X183.510  E0.6081
G1  Y221.745  E0.0190
G1  X167.510  E0.6081
G1  Y222.245  E0.0190
G1  X183.510  E0.6081
G1  Y222.745  E0.0190
G1  X167.510  E0.6081
G1  Y223.245  E0.0190
G1  X183.510  E0.6081
G1  Y223.745  E0.0190
G1  X167.510  E0.6081
G1  Y224.245  E0.0190
G1  X183.510  E0.6081
G1  Y224.745  E0.0190
G1  X167.510  E0.6081
G1  Y225.245  E0.0190
G1  X183.510  E0.6081
G1  Y225.745  E0.0190
G1  X167.510  E0.6081
G1  Y226.245  E0.0190
G1  X183.510  E0.6081
G1  Y226.745  E0.0190
G1  X167.510  E0.6081
G1  Y227.245  E0.0190
G1  X183.510  E0.6081
G1  Y227.745  E0.0190
G1  X167.510  E0.6081
M73 P8 R98
G1  Y228.245  E0.0190
G1  X183.510  E0.6081
G1  Y228.745  E0.0190
G1  X167.510  E0.6081
G1  Y229.245  E0.0190
G1  X183.510  E0.6081
G1  Y229.745  E0.0190
G1  X167.510  E0.6081
M73 P8 R97
G1  Y230.245  E0.0190
G1  X183.510  E0.6081
G1  Y230.745  E0.0190
G1  X167.510  E0.6081
G1  Y231.245  E0.0190
G1  X183.510  E0.6081
G1  Y231.745  E0.0190
G1  X167.510  E0.6081
G1  Y232.245  E0.0190
G1  X183.510  E0.6081
G1  Y232.745  E0.0190
G1  X167.510  E0.6081
G1  Y233.245  E0.0190
G1  X183.510  E0.6081
; LINE_WIDTH: 0.500000
; WIPE_TOWER_END
M220 R
G1 F30000
G4 S0
G92 E0
; CP TOOLCHANGE END
;------------------



; WIPE_START
G1 F6300
M204 S500
G1 X181.51 Y233.246 E-.76
; WIPE_END
G1 E-.04 F1800
M204 S6000
G17
G3 Z.6 I1.217 J0 P1  F30000
; OBJECT_ID: 74
M204 S6000
G1 X133.857 Y130.143
G1 Z.2
G1 E.8 F1800
; FEATURE: Inner wall
; LINE_WIDTH: 0.5
; LAYER_HEIGHT: 0.2
G1 F3000
M204 S500
G1 X133.857 Y121.857 E.30862
G1 X142.143 Y121.857 E.30862
G1 X142.143 Y130.143 E.30862
G1 X133.917 Y130.143 E.30638
M204 S6000
G1 X133.4 Y130.6 F30000
; FEATURE: Outer wall
G1 F3000
M204 S500
G1 X133.4 Y121.4 E.34267
G1 X142.6 Y121.4 E.34267
G1 X142.6 Y130.6 E.34267
; tau-fixture: removed 12 lines of the timelapse sequence

G1 X133.46 Y130.6 E.34043
; WIPE_START
G1 X133.447 Y128.6 E-.76
; WIPE_END
G1 E-.04 F1800
M204 S6000
G1 X139.213 Y123.599 Z.6 F30000
G1 X141.01 Y122.04 Z.6
G1 Z.2
G1 E.8 F1800
; FEATURE: Bottom surface
; LINE_WIDTH: 0.51231
G1 F6300
M204 S500
G1 X141.754 Y122.784 E.04027
G1 X141.754 Y123.448 E.02539
G1 X140.552 Y122.246 E.06505
G1 X139.888 Y122.246 E.02539
G1 X141.754 Y124.112 E.10096
G1 X141.754 Y124.776 E.02539
G1 X139.224 Y122.246 E.13686
G1 X138.56 Y122.246 E.02539
G1 X141.754 Y125.44 E.17277
G1 X141.754 Y126.103 E.02539
G1 X137.897 Y122.246 E.20868
G1 X137.233 Y122.246 E.02539
G1 X141.754 Y126.767 E.24459
G1 X141.754 Y127.431 E.02539
G1 X136.569 Y122.246 E.28049
G1 X135.905 Y122.246 E.02539
G1 X141.754 Y128.095 E.3164
G1 X141.754 Y128.759 E.02539
G1 X135.241 Y122.246 E.35231
G1 X134.578 Y122.246 E.02539
G1 X141.754 Y129.422 E.38822
G1 X141.754 Y129.754 E.0127
G1 X141.423 Y129.754 E.01269
G1 X134.246 Y122.577 E.38822
G1 X134.246 Y123.241 E.02539
G1 X140.759 Y129.754 E.35231
G1 X140.095 Y129.754 E.02539
G1 X134.246 Y123.905 E.31641
G1 X134.246 Y124.569 E.02539
G1 X139.431 Y129.754 E.2805
G1 X138.767 Y129.754 E.02539
G1 X134.246 Y125.233 E.24459
G1 X134.246 Y125.897 E.02539
G1 X138.103 Y129.754 E.20868
G1 X137.44 Y129.754 E.02539
G1 X134.246 Y126.56 E.17278
G1 X134.246 Y127.224 E.02539
G1 X136.776 Y129.754 E.13687
G1 X136.112 Y129.754 E.02539
G1 X134.246 Y127.888 E.10096
G1 X134.246 Y128.552 E.02539
G1 X135.448 Y129.754 E.06505
G1 X134.784 Y129.754 E.02539
G1 X134.04 Y129.01 E.04027
; CHANGE_LAYER
; Z_HEIGHT: 0.4
; LAYER_HEIGHT: 0.2
; WIPE_START
G1 F6300
G1 X134.784 Y129.754 E-.40008
G1 X135.448 Y129.754 E-.25225
G1 X135.248 Y129.554 E-.10767
; WIPE_END
G1 E-.04 F1800
; tau-fixture: removed 4 lines of the layer change sequence
M106 S255
M106 P2 S178
; open powerlost recovery
M1003 S1
M976 S1 P1 ; scan model before printing 2nd layer
M400 P100
G1 E.8
; OBJECT_ID: 74
G1 E-.8
M204 S10000
G1 X133.602 Y130.398 Z.6 F30000
G1 Z.4
G1 E.8 F1800
; FEATURE: Inner wall
; LINE_WIDTH: 0.45
; LAYER_HEIGHT: 0.2
G1 F15476.087
G1 X133.602 Y121.602 E.29178
G1 X142.398 Y121.602 E.29178
G1 X142.398 Y130.398 E.29178
G1 X133.662 Y130.398 E.28978
M204 S250
G1 X133.21 Y130.79 F30000
; FEATURE: Outer wall
; LINE_WIDTH: 0.42
G1 F12000
M204 S5000
G1 X133.21 Y121.21 E.29437
G1 X142.79 Y121.21 E.29437
G1 X142.79 Y130.79 E.29437
; tau-fixture: removed 12 lines of the timelapse sequence

G1 X133.27 Y130.79 E.29252
; WIPE_START
M204 S10000
G1 X133.257 Y128.79 E-.76
; WIPE_END
G1 E-.04 F1800
G1 X140.774 Y130.115 Z.8 F30000
G1 X141.449 Y130.234 Z.8
G1 Z.4
G1 E.8 F1800
; FEATURE: Internal solid infill
; LINE_WIDTH: 0.43098
G1 F15000
G1 X142.065 Y129.618 E.02754
G1 X142.065 Y129.07 E.01735
G1 X141.07 Y130.065 E.0445
G1 X140.521 Y130.065 E.01735
G1 X142.065 Y128.521 E.06904
G1 X142.065 Y127.972 E.01735
G1 X139.972 Y130.065 E.09358
G1 X139.423 Y130.065 E.01735
G1 X142.065 Y127.423 E.11812
M73 P9 R97
G1 X142.065 Y126.874 E.01735
G1 X138.874 Y130.065 E.14267
G1 X138.326 Y130.065 E.01735
G1 X142.065 Y126.326 E.16721
G1 X142.065 Y125.777 E.01735
G1 X137.777 Y130.065 E.19175
G1 X137.228 Y130.065 E.01735
G1 X142.065 Y125.228 E.21629
G1 X142.065 Y124.679 E.01735
G1 X136.679 Y130.065 E.24084
G1 X136.13 Y130.065 E.01735
G1 X142.065 Y124.13 E.26538
G1 X142.065 Y123.582 E.01735
G1 X135.582 Y130.065 E.28992
G1 X135.033 Y130.065 E.01735
G1 X142.065 Y123.033 E.31446
G1 X142.065 Y122.484 E.01735
G1 X134.484 Y130.065 E.33901
G1 X133.935 Y130.065 E.01735
G1 X142.065 Y121.935 E.36354
G1 X141.516 Y121.935 E.01735
G1 X133.935 Y129.516 E.339
G1 X133.935 Y128.967 E.01735
G1 X140.967 Y121.935 E.31446
G1 X140.418 Y121.935 E.01735
G1 X133.935 Y128.418 E.28992
G1 X133.935 Y127.869 E.01735
G1 X139.869 Y121.935 E.26537
G1 X139.321 Y121.935 E.01735
G1 X133.935 Y127.321 E.24083
G1 X133.935 Y126.772 E.01735
G1 X138.772 Y121.935 E.21629
G1 X138.223 Y121.935 E.01735
G1 X133.935 Y126.223 E.19175
G1 X133.935 Y125.674 E.01735
G1 X137.674 Y121.935 E.1672
G1 X137.125 Y121.935 E.01735
G1 X133.935 Y125.125 E.14266
G1 X133.935 Y124.577 E.01735
G1 X136.577 Y121.935 E.11812
G1 X136.028 Y121.935 E.01735
G1 X133.935 Y124.028 E.09358
G1 X133.935 Y123.479 E.01735
G1 X135.479 Y121.935 E.06903
G1 X134.93 Y121.935 E.01735
G1 X133.935 Y122.93 E.04449
G1 X133.935 Y122.381 E.01735
G1 X134.551 Y121.766 E.02754
; LAYER_HEIGHT: 0.200000
; FEATURE: Prime tower
; LINE_WIDTH: 0.500000
;--------------------
; CP TOOLCHANGE START
; toolchange #2
; material : PLA -> PLA
;--------------------
M220 B
M220 S100
; WIPE_TOWER_START
; WIPE_START
G1 F5400
M204 S10000
G1 X133.935 Y122.381 E-.8273
G1 X133.935 Y122.93 E-.52136
G1 X134.346 Y122.52 E-.55133
; WIPE_END
G1 E-.1 F1800
G17
G3 Z.8 I1.217 J0 P1  F5400
; tau-fixture: removed 156 lines of the filament end and change sequences; its filament selections and machine state follow
M620 S0A
M104 S220
T0
G92 E0
G92 E0
M83
M109 S240
G91
G90
M83
G91
G90
M83
M109 S220
G92 E0
M621 S0A
M106 S255
M106 P2 S178
G1 X181.982 Y241.263 F30000
G1 Z.4
G1 X189.615 Y241.263 Z.8
G1 X191.221 Y241.263 Z.8
G1 X191.221 Y233.246

; tau-fixture: removed 4 lines of the filament start sequence
G1 X183.51 Y233.246
G1 Z.4
G1 E2 F1800

G4 S0
; CP_TOOLCHANGE_WIPE CT0 FL0
M204 S10000
G1  X180.510 Y233.245  E0.1140 F1782
G1 E-0.8000 F1800
G1  X185.010  F600
G1  X180.510  F240
G1 E0.8000 F1800
G1  X167.510  E0.4941 F1782
G1  Y232.495  E0.0285
G1  X183.510  E0.6081 F2025
G1  Y231.745  E0.0285
G1  X167.510  E0.6081 F2473
G1  Y230.995  E0.0285
G1  X183.510  E0.6081 F4725
G1  Y230.245  E0.0285
G1  X167.510  E0.6081 F4775
G1  Y229.495  E0.0285
G1  X183.510  E0.6081
G1  Y228.745  E0.0285
G1  X167.510  E0.6081
G1  Y227.995  E0.0285
G1  X183.510  E0.6081
G1  Y227.245  E0.0285
G1  X167.510  E0.6081
G1  Y226.495  E0.0285
G1  X183.510  E0.6081
G1  Y225.745  E0.0285
G1  X167.510  E0.6081
G1  Y224.995  E0.0285
G1  X183.510  E0.6081
G1  Y224.245  E0.0285
G1  X167.510  E0.6081
M73 P10 R96
G1  Y223.495  E0.0285
G1  X183.510  E0.6081
M73 P10 R95
G1  Y222.745  E0.0285
G1  X167.510  E0.6081
G1  Y221.995  E0.0285
G1  X183.510  E0.6081
G1  Y221.245  E0.0285
G1  X167.510  E0.6081
G1  Y220.495  E0.0285
G1  X183.510  E0.6081
G1  Y219.745  E0.0285
G1  X167.510  E0.6081
G1  Y218.995  E0.0285
G1  X183.510  E0.6081
G1  Y218.245  E0.0285
G1  X167.510  E0.6081
; WIPE_TOWER_END
M220 R
G1 F30000
G4 S0
G92 E0
; CP TOOLCHANGE END
;------------------


G1  Y232.995   F5400.000000
; LAYER_HEIGHT: 0.200000
; FEATURE: Prime tower
; LINE_WIDTH: 0.500000
; WIPE_TOWER_START
M204 S10000
G1  X167.010 Y233.995  
G3  X165.076 Y231.686   I3.844 J-5.182 E0.1156
G3  X166.252 Y229.068   I2.922 J-0.261 E0.1140
G2  X165.694 Y222.020   I-5.282 J-3.127 E0.2863
G3  X165.504 Y219.320   I1.145 J-1.437 E0.1156
G3  X168.630 Y216.087   I19.307 J15.530 E0.1712
G3  X171.944 Y216.848   I1.223 J2.269 E0.1411
G2  X175.510 Y217.745   I3.018 J-4.462 E0.1426
G1  X176.157  E0.0246
G2  X180.318 Y215.876   I-0.216 J-6.048 E0.1778
G3  X182.623 Y216.294   I0.859 J1.828 E0.0950
G1  X184.010 Y217.745   E0.0763
G3  X185.944 Y220.055   I-3.844 J5.182 E0.1156
G3  X184.768 Y222.673   I-2.922 J0.261 E0.1140
G2  X185.326 Y229.721   I5.282 J3.127 E0.2863
G3  X185.587 Y232.339   I-1.144 J1.437 E0.1115
G1 E-0.8000 F1800
G1  X183.863 Y234.150   F600
G1 E0.8000 F1800
G3  X181.227 Y236.061   I-3.627 J-2.225 E0.1270 F5400
G3  X178.757 Y234.688   I1.024 J-4.747 E0.1090
G2  X170.702 Y235.865   I-3.212 J6.170 E0.3305
G3  X168.397 Y235.447   I-0.859 J-1.828 E0.0950
G1  X167.010 Y233.995   E0.0763
G1  X168.073 Y235.768  
G3  X164.948 Y232.460   I16.429 J-18.644 E0.1732
G3  X165.786 Y228.932   I2.237 J-1.332 E0.1525
G2  X165.375 Y222.348   I-4.822 J-3.003 E0.2674
G3  X165.168 Y219.012   I1.461 J-1.766 E0.1424
G3  X168.353 Y215.723   I19.495 J15.692 E0.1743
G3  X172.206 Y216.473   I1.517 J2.475 E0.1639
G2  X180.120 Y215.464   I3.297 J-5.671 E0.3259
G3  X182.947 Y215.973   I1.056 J2.246 E0.1164
G3  X186.072 Y219.281   I-16.423 J18.639 E0.1732
G3  X185.234 Y222.809   I-2.237 J1.332 E0.1525
G2  X185.645 Y229.393   I4.823 J3.003 E0.2674
G3  X185.852 Y232.729   I-1.461 J1.766 E0.1424
G3  X182.815 Y235.896   I-41.802 J-37.050 E0.1668
G3  X178.814 Y235.268   I-1.684 J-2.330 E0.1708
G2  X170.900 Y236.277   I-3.297 J5.671 E0.3259
G3  X168.073 Y235.768   I-1.056 J-2.246 E0.1164
G1  X167.749 Y236.091  
G3  X164.572 Y232.719   I16.640 J-18.863 E0.1763
G3  X165.500 Y228.546   I2.800 J-1.567 E0.1778
G2  X165.056 Y222.675   I-4.589 J-2.605 E0.2374
G3  X164.831 Y218.702   I1.778 J-2.094 E0.1692
G3  X168.076 Y215.359   I19.728 J15.898 E0.1773
G3  X172.468 Y216.100   I1.818 J2.609 E0.1875
G2  X179.720 Y215.158   I3.024 J-5.110 E0.2994
G3  X181.476 Y214.779   I1.504 J2.704 E0.0693
G3  X183.271 Y215.650   I-0.308 J2.921 E0.0774
G3  X186.448 Y219.021   I-16.635 J18.859 E0.1763
G3  X185.520 Y223.195   I-2.800 J1.567 E0.1778
G2  X185.964 Y229.065   I4.589 J2.605 E0.2374
G3  X186.189 Y233.038   I-1.778 J2.094 E0.1692
G3  X182.944 Y236.382   I-19.733 J-15.902 E0.1773
G3  X178.552 Y235.641   I-1.818 J-2.609 E0.1875
G2  X171.300 Y236.583   I-3.024 J5.110 E0.2994
G3  X167.749 Y236.091   I-1.461 J-2.522 E0.1468
G1  X167.424 Y236.413  
G3  X164.196 Y232.980   I16.873 J-19.104 E0.1794
G3  X165.124 Y228.285   I2.965 J-1.852 E0.2003
G2  X164.595 Y222.867   I-4.132 J-2.331 E0.2204
G3  X164.494 Y218.393   I2.256 J-2.289 E0.1882
G3  X167.799 Y214.994   I19.990 J16.130 E0.1804
G3  X172.844 Y215.801   I2.072 J3.220 E0.2126
G2  X179.489 Y214.764   I2.644 J-4.863 E0.2747
G3  X183.596 Y215.327   I1.691 J2.918 E0.1696
G3  X186.824 Y218.760   I-16.873 J19.103 E0.1794
G3  X185.896 Y223.454   I-2.965 J1.852 E0.2003
G2  X186.425 Y228.874   I4.132 J2.331 E0.2204
G3  X186.526 Y233.348   I-2.256 J2.289 E0.1882
G1  X185.001 Y234.943   E0.0839
G3  X181.522 Y237.417   I-5.056 J-3.426 E0.1658
G3  X178.059 Y235.867   I0.038 J-4.729 E0.1484
G2  X171.531 Y236.977   I-2.515 J4.966 E0.2696
G3  X167.424 Y236.413   I-1.691 J-2.918 E0.1696
G1  X167.100 Y236.736  
G3  X163.819 Y233.240   I17.139 J-19.375 E0.1825
M73 P11 R95
G3  X164.803 Y227.943   I3.357 J-2.116 E0.2251
G2  X164.418 Y223.331   I-3.977 J-1.991 E0.1851
G3  X164.158 Y218.083   I2.414 J-2.749 E0.2227
G3  X167.522 Y214.630   I20.269 J16.380 E0.1835
G3  X173.092 Y215.417   I2.363 J3.380 E0.2353
G2  X179.259 Y214.368   I2.402 J-4.533 E0.2557
G3  X181.568 Y213.868   I1.978 J3.554 E0.0911
G3  X183.920 Y215.005   I-0.404 J3.837 E0.1013
G3  X187.201 Y218.501   I-17.135 J19.371 E0.1825
G3  X186.217 Y223.798   I-3.357 J2.116 E0.2251
G2  X186.602 Y228.410   I3.977 J1.991 E0.1851
G3  X186.862 Y233.658   I-2.414 J2.749 E0.2227
G3  X183.498 Y237.111   I-20.272 J-16.383 E0.1835
G3  X177.928 Y236.324   I-2.363 J-3.380 E0.2353
G2  X171.761 Y237.372   I-2.402 J4.533 E0.2557
G3  X167.100 Y236.736   I-1.921 J-3.314 E0.1925
G1  X166.776 Y237.059  
G3  X163.443 Y233.501   I17.413 J-19.654 E0.1855
G3  X164.458 Y227.630   I3.803 J-2.366 E0.2477
G2  X164.098 Y223.658   I-3.727 J-1.665 E0.1584
G3  X163.821 Y217.775   I2.732 J-3.077 E0.2495
G3  X167.244 Y214.266   I20.563 J16.645 E0.1865
G3  X173.426 Y215.087   I2.646 J3.760 E0.2604
G2  X179.029 Y213.973   I2.033 J-4.426 E0.2320
G3  X181.614 Y213.413   I2.214 J3.980 E0.1020
G3  X184.244 Y214.682   I-0.453 J4.295 E0.1132
G3  X187.577 Y218.240   I-17.412 J19.653 E0.1855
G3  X186.562 Y224.111   I-3.803 J2.366 E0.2477
G2  X186.922 Y228.083   I3.727 J1.665 E0.1584
G3  X187.199 Y233.966   I-2.732 J3.077 E0.2494
G3  X183.776 Y237.475   I-20.563 J-16.645 E0.1865
G3  X177.594 Y236.654   I-2.646 J-3.760 E0.2604
G2  X171.991 Y237.768   I-2.033 J4.426 E0.2320
G3  X166.776 Y237.059   I-2.150 J-3.710 E0.2153
; WIPE_TOWER_END

; WIPE_START
G1 X166.985 Y237.261 E-.11062
G1 X167.244 Y237.474 E-.1277
G1 X167.52 Y237.667 E-.12772
G1 X167.809 Y237.838 E-.12764
G1 X168.111 Y237.986 E-.12772
G1 X168.424 Y238.109 E-.12775
G1 X168.451 Y238.117 E-.01085
; WIPE_END
G1 E-.04 F1800
G17
G3 Z.8 I1.217 J0 P1  F30000
; OBJECT_ID: 74
M204 S10000
G1 X122.398 Y130.398
G1 Z.4
G1 E.8 F1800
; FEATURE: Inner wall
; LINE_WIDTH: 0.45
; LAYER_HEIGHT: 0.2
G1 F15476.087
G1 X113.602 Y130.398 E.29178
G1 X113.602 Y121.602 E.29178
G1 X122.398 Y121.602 E.29178
G1 X122.398 Y130.338 E.28979
M204 S250
G1 X122.79 Y130.79 F30000
; FEATURE: Outer wall
; LINE_WIDTH: 0.42
G1 F12000
M204 S5000
G1 X113.21 Y130.79 E.29437
G1 X113.21 Y121.21 E.29437
G1 X122.79 Y121.21 E.29437
G1 X122.79 Y130.73 E.29252
; WIPE_START
M204 S10000
G1 X120.79 Y130.743 E-.76
; WIPE_END
G1 E-.04 F1800
G1 X121.449 Y130.234 Z.8 F30000
G1 Z.4
G1 E.8 F1800
; FEATURE: Internal solid infill
; LINE_WIDTH: 0.43098
G1 F15000
G1 X122.065 Y129.618 E.02754
G1 X122.065 Y129.07 E.01735
G1 X121.07 Y130.065 E.0445
G1 X120.521 Y130.065 E.01735
G1 X122.065 Y128.521 E.06904
G1 X122.065 Y127.972 E.01735
G1 X119.972 Y130.065 E.09358
G1 X119.423 Y130.065 E.01735
G1 X122.065 Y127.423 E.11812
G1 X122.065 Y126.874 E.01735
G1 X118.874 Y130.065 E.14267
G1 X118.326 Y130.065 E.01735
G1 X122.065 Y126.326 E.16721
G1 X122.065 Y125.777 E.01735
G1 X117.777 Y130.065 E.19175
G1 X117.228 Y130.065 E.01735
G1 X122.065 Y125.228 E.21629
G1 X122.065 Y124.679 E.01735
G1 X116.679 Y130.065 E.24084
G1 X116.13 Y130.065 E.01735
G1 X122.065 Y124.13 E.26538
G1 X122.065 Y123.582 E.01735
G1 X115.582 Y130.065 E.28992
G1 X115.033 Y130.065 E.01735
G1 X122.065 Y123.033 E.31446
G1 X122.065 Y122.484 E.01735
G1 X114.484 Y130.065 E.33901
G1 X113.935 Y130.065 E.01735
G1 X122.065 Y121.935 E.36354
G1 X121.516 Y121.935 E.01735
G1 X113.935 Y129.516 E.339
G1 X113.935 Y128.967 E.01735
G1 X120.967 Y121.935 E.31446
G1 X120.418 Y121.935 E.01735
G1 X113.935 Y128.418 E.28992
G1 X113.935 Y127.869 E.01735
G1 X119.869 Y121.935 E.26537
G1 X119.321 Y121.935 E.01735
G1 X113.935 Y127.321 E.24083
G1 X113.935 Y126.772 E.01735
G1 X118.772 Y121.935 E.21629
G1 X118.223 Y121.935 E.01735
G1 X113.935 Y126.223 E.19175
G1 X113.935 Y125.674 E.01735
G1 X117.674 Y121.935 E.1672
G1 X117.125 Y121.935 E.01735
G1 X113.935 Y125.125 E.14266
G1 X113.935 Y124.577 E.01735
G1 X116.577 Y121.935 E.11812
G1 X116.028 Y121.935 E.01735
M73 P11 R94
G1 X113.935 Y124.028 E.09358
G1 X113.935 Y123.479 E.01735
G1 X115.479 Y121.935 E.06903
G1 X114.93 Y121.935 E.01735
G1 X113.935 Y122.93 E.04449
G1 X113.935 Y122.381 E.01735
G1 X114.551 Y121.766 E.02754
; tau-fixture: removed layers 3 to 50
; MACHINE_END_GCODE_START
; tau-fixture: removed 77 lines of the machine end sequence; its filament selections and machine state follow
G92 E0
M140 S0
M620 S255
T255
M621 S255
M104 S0
; EXECUTABLE_BLOCK_END
